{"version": 0.6, "generator": "Overpass API 0.7.62.5 1bd436f1", "osm3s": {"timestamp_osm_base": "2025-03-28T19:03:17Z", "copyright": "The data included in this document is from www.openstreetmap.org. The data is made available under ODbL."}, "elements": [{"type": "node", "id": 320933977, "lat": 41.0943696, "lon": 29.0956537}, {"type": "node", "id": 4583816370, "lat": 41.0942461, "lon": 29.0954544}, {"type": "node", "id": 4583816373, "lat": 41.0943294, "lon": 29.0957095}, {"type": "node", "id": 4583816374, "lat": 41.0942607, "lon": 29.0957563}, {"type": "node", "id": 4583816375, "lat": 41.0941559, "lon": 29.0957696}, {"type": "node", "id": 4583816376, "lat": 41.0940562, "lon": 29.0957534}, {"type": "node", "id": 4583816377, "lat": 41.0939812, "lon": 29.0956701}, {"type": "node", "id": 4583816378, "lat": 41.0939332, "lon": 29.0955483}, {"type": "node", "id": 9727646232, "lat": 41.0944302, "lon": 29.0954026}, {"type": "node", "id": 9727646233, "lat": 41.0944045, "lon": 29.0955435}, {"type": "node", "id": 9727646321, "lat": 41.0944196, "lon": 29.0954606, "tags": {"direction": "forward", "highway": "stop"}}, {"type": "node", "id": 9727646322, "lat": 41.0943923, "lon": 29.095582, "tags": {"direction": "forward", "highway": "stop"}}, {"type": "node", "id": 11387794189, "lat": 41.0912681, "lon": 29.0941658, "tags": {"bus": "yes", "highway": "bus_stop", "public_transport": "platform"}}, {"type": "node", "id": 11536395011, "lat": 41.091107, "lon": 29.082537, "tags": {"bus": "yes", "highway": "bus_stop", "name": "Ota\u011ftepe Caddesi", "network": "\u0130ETT", "network:wikidata": "Q343136", "operator": "\u0130ETT", "public_transport": "platform", "public_transport:version": "2", "ref": "200552", "website": "https://iett.istanbul/StationDetail?dkod=200552"}}, {"type": "node", "id": 11536395013, "lat": 41.090626, "lon": 29.080674, "tags": {"bus": "yes", "highway": "bus_stop", "name": "Kavac\u0131k D\u00f6rtyol", "network": "\u0130ETT", "network:wikidata": "Q343136", "operator": "\u0130ETT", "public_transport": "platform", "public_transport:version": "2", "ref": "220691", "website": "https://iett.istanbul/StationDetail?dkod=220691"}}, {"type": "node", "id": 11536395016, "lat": 41.094352, "lon": 29.094947, "tags": {"bus": "yes", "highway": "bus_stop", "name": "Cumhuriyet Caddesi", "network": "\u0130ETT", "network:wikidata": "Q343136", "operator": "\u0130ETT", "public_transport": "platform", "public_transport:version": "2", "ref": "220831", "website": "https://iett.istanbul/StationDetail?dkod=220831"}}, {"type": "node", "id": 11536395019, "lat": 41.093972, "lon": 29.092725, "tags": {"bus": "yes", "highway": "bus_stop", "name": "\u015eehit Hasan Kaya", "network": "\u0130ETT", "network:wikidata": "Q343136", "operator": "\u0130ETT", "public_transport": "platform", "public_transport:version": "2", "ref": "220821", "website": "https://iett.istanbul/StationDetail?dkod=220821"}}, {"type": "node", "id": 11536395021, "lat": 41.093549, "lon": 29.080285, "tags": {"bus": "yes", "highway": "bus_stop", "name": "Kaptanlar", "network": "\u0130ETT", "network:wikidata": "Q343136", "operator": "\u0130ETT", "public_transport": "platform", "public_transport:version": "2", "ref": "220671", "website": "https://iett.istanbul/StationDetail?dkod=220671"}}, {"type": "node", "id": 11536395026, "lat": 41.0934, "lon": 29.089307, "tags": {"bus": "yes", "highway": "bus_stop", "name": "\u015eehit Mustafa Yaz\u0131c\u0131 Park\u0131", "network": "\u0130ETT", "network:wikidata": "Q343136", "operator": "\u0130ETT", "public_transport": "platform", "public_transport:version": "2", "ref": "200041", "short_name": "\u015e.M Yaz\u0131c\u0131 Park\u0131", "website": "https://iett.istanbul/StationDetail?dkod=200041"}}, {"type": "node", "id": 11536395040, "lat": 41.092554, "lon": 29.085414, "tags": {"bus": "yes", "highway": "bus_stop", "name": "Hasan Yavuz", "network": "\u0130ETT", "network:wikidata": "Q343136", "operator": "\u0130ETT", "public_transport": "platform", "public_transport:version": "2", "ref": "220742", "website": "https://iett.istanbul/StationDetail?dkod=220742"}}, {"type": "node", "id": 11536395043, "lat": 41.094515, "lon": 29.094671, "tags": {"bus": "yes", "highway": "bus_stop", "name": "Cumhuriyet Caddesi", "network": "\u0130ETT", "network:wikidata": "Q343136", "operator": "\u0130ETT", "public_transport": "platform", "public_transport:version": "2", "ref": "220832", "website": "https://iett.istanbul/StationDetail?dkod=220832"}}, {"type": "node", "id": 11536395049, "lat": 41.091034, "lon": 29.082493, "tags": {"bus": "yes", "highway": "bus_stop", "name": "Ota\u011ftepe Caddesi", "network": "\u0130ETT", "network:wikidata": "Q343136", "operator": "\u0130ETT", "public_transport": "platform", "public_transport:version": "2", "ref": "200551", "website": "https://iett.istanbul/StationDetail?dkod=200551"}}, {"type": "node", "id": 11536395057, "lat": 41.093805, "lon": 29.079573, "tags": {"bus": "yes", "highway": "bus_stop", "name": "Kaptanlar", "network": "\u0130ETT", "network:wikidata": "Q343136", "operator": "\u0130ETT", "public_transport": "platform", "public_transport:version": "2", "ref": "220672", "website": "https://iett.istanbul/StationDetail?dkod=220672"}}, {"type": "node", "id": 11536395058, "lat": 41.092842, "lon": 29.085898, "tags": {"bus": "yes", "highway": "bus_stop", "name": "Hasan Yavuz", "network": "\u0130ETT", "network:wikidata": "Q343136", "operator": "\u0130ETT", "public_transport": "platform", "public_transport:version": "2", "ref": "220741", "website": "https://iett.istanbul/StationDetail?dkod=220741"}}, {"type": "node", "id": 11536395059, "lat": 41.089526, "lon": 29.092831, "tags": {"bus": "yes", "highway": "bus_stop", "name": "Kavac\u0131k Sapa\u011f\u0131", "network": "\u0130ETT", "network:wikidata": "Q343136", "operator": "\u0130ETT", "public_transport": "platform", "public_transport:version": "2", "ref": "218872", "website": "https://iett.istanbul/StationDetail?dkod=218872"}}, {"type": "node", "id": 11536395068, "lat": 41.090748, "lon": 29.080724, "tags": {"bus": "yes", "highway": "bus_stop", "name": "Kavac\u0131k D\u00f6rtyol", "network": "\u0130ETT", "network:wikidata": "Q343136", "operator": "\u0130ETT", "public_transport": "platform", "public_transport:version": "2", "ref": "220692", "website": "https://iett.istanbul/StationDetail?dkod=220692"}}, {"type": "node", "id": 11536460870, "lat": 41.088525, "lon": 29.090536, "tags": {"bus": "yes", "highway": "bus_stop", "name": "Kavac\u0131k Sapa\u011f\u0131", "network": "\u0130ETT", "network:wikidata": "Q343136", "operator": "\u0130ETT", "public_transport": "platform", "public_transport:version": "2", "ref": "218871", "website": "https://iett.istanbul/StationDetail?dkod=218871"}}, {"type": "node", "id": 11536460878, "lat": 41.094736, "lon": 29.089317, "tags": {"bus": "yes", "highway": "bus_stop", "name": "Mihrabat Caddesi", "network": "\u0130ETT", "network:wikidata": "Q343136", "operator": "\u0130ETT", "public_transport": "platform", "public_transport:version": "2", "ref": "216572", "website": "https://iett.istanbul/StationDetail?dkod=216572"}}, {"type": "node", "id": 11536915132, "lat": 41.088704, "lon": 29.087292, "tags": {"bus": "yes", "highway": "bus_stop", "name": "Kavac\u0131k", "network": "\u0130ETT", "network:wikidata": "Q343136", "operator": "\u0130ETT", "public_transport": "platform", "public_transport:version": "2", "ref": "260211", "website": "https://iett.istanbul/StationDetail?dkod=260211"}}, {"type": "node", "id": 11536915139, "lat": 41.095714, "lon": 29.087301, "tags": {"bus": "yes", "highway": "bus_stop", "name": "Ozanlar", "network": "\u0130ETT", "network:wikidata": "Q343136", "operator": "\u0130ETT", "public_transport": "platform", "public_transport:version": "2", "ref": "220751", "website": "https://iett.istanbul/StationDetail?dkod=220751"}}, {"type": "node", "id": 11536915145, "lat": 41.099256, "lon": 29.088289, "tags": {"bus": "yes", "highway": "bus_stop", "name": "Ahmet Hamdi Akseki Camii", "network": "\u0130ETT", "network:wikidata": "Q343136", "operator": "\u0130ETT", "public_transport": "platform", "public_transport:version": "2", "ref": "201722", "website": "https://iett.istanbul/StationDetail?dkod=201722"}}, {"type": "node", "id": 11536915146, "lat": 41.089104, "lon": 29.088771, "tags": {"bus": "yes", "highway": "bus_stop", "name": "Kavac\u0131k", "network": "\u0130ETT", "network:wikidata": "Q343136", "operator": "\u0130ETT", "public_transport": "platform", "public_transport:version": "2", "ref": "260212", "website": "https://iett.istanbul/StationDetail?dkod=260212"}}, {"type": "node", "id": 11536915149, "lat": 41.099346, "lon": 29.088012, "tags": {"bus": "yes", "highway": "bus_stop", "name": "Ahmet Hamdi Akseki Camii", "network": "\u0130ETT", "network:wikidata": "Q343136", "operator": "\u0130ETT", "public_transport": "platform", "public_transport:version": "2", "ref": "201721", "website": "https://iett.istanbul/StationDetail?dkod=201721"}}, {"type": "node", "id": 11536915154, "lat": 41.088427, "lon": 29.086458, "tags": {"bus": "yes", "highway": "bus_stop", "name": "Atat\u00fcrk Caddesi", "network": "\u0130ETT", "network:wikidata": "Q343136", "operator": "\u0130ETT", "public_transport": "platform", "public_transport:version": "2", "ref": "220631", "website": "https://iett.istanbul/StationDetail?dkod=220631"}}, {"type": "node", "id": 11536915157, "lat": 41.095433, "lon": 29.087198, "tags": {"bus": "yes", "highway": "bus_stop", "name": "Ozanlar", "network": "\u0130ETT", "network:wikidata": "Q343136", "operator": "\u0130ETT", "public_transport": "platform", "public_transport:version": "2", "ref": "220752", "website": "https://iett.istanbul/StationDetail?dkod=220752"}}, {"type": "node", "id": 11536915162, "lat": 41.093188, "lon": 29.087679, "tags": {"bus": "yes", "highway": "bus_stop", "name": "\u00d6zg\u00fcr Caddesi", "network": "\u0130ETT", "network:wikidata": "Q343136", "operator": "\u0130ETT", "public_transport": "platform", "public_transport:version": "2", "ref": "216531", "website": "https://iett.istanbul/StationDetail?dkod=216531"}}, {"type": "node", "id": 11536915163, "lat": 41.093684, "lon": 29.095485, "tags": {"bus": "yes", "highway": "bus_stop", "name": "Kavac\u0131k Mezarl\u0131k", "network": "\u0130ETT", "network:wikidata": "Q343136", "operator": "\u0130ETT", "public_transport": "platform", "public_transport:version": "2", "ref": "218881", "website": "https://iett.istanbul/StationDetail?dkod=218881"}}, {"type": "node", "id": 11536935346, "lat": 41.097291, "lon": 29.093911, "tags": {"bus": "yes", "highway": "bus_stop", "name": "Anadolu Caddesi", "network": "\u0130ETT", "network:wikidata": "Q343136", "operator": "\u0130ETT", "public_transport": "platform", "public_transport:version": "2", "ref": "200631", "website": "https://iett.istanbul/StationDetail?dkod=200631"}}, {"type": "node", "id": 11536935355, "lat": 41.09497, "lon": 29.093679, "tags": {"bus": "yes", "highway": "bus_stop", "name": "Celal Aras Anadolu Lisesi", "network": "\u0130ETT", "network:wikidata": "Q343136", "operator": "\u0130ETT", "public_transport": "platform", "public_transport:version": "2", "ref": "214851", "website": "https://iett.istanbul/StationDetail?dkod=214851"}}, {"type": "node", "id": 11536935366, "lat": 41.099327, "lon": 29.092453, "tags": {"bus": "yes", "highway": "bus_stop", "name": "Atat\u00fcrk \u0130lkokulu", "network": "\u0130ETT", "network:wikidata": "Q343136", "operator": "\u0130ETT", "public_transport": "platform", "public_transport:version": "2", "ref": "220851", "website": "https://iett.istanbul/StationDetail?dkod=220851"}}, {"type": "node", "id": 11536999372, "lat": 41.096009, "lon": 29.09195, "tags": {"bus": "yes", "highway": "bus_stop", "name": "Beykoz \u00dcniversitesi", "network": "\u0130ETT", "network:wikidata": "Q343136", "operator": "\u0130ETT", "public_transport": "platform", "public_transport:version": "2", "ref": "215501", "website": "https://iett.istanbul/StationDetail?dkod=215501"}}, {"type": "node", "id": 11536999374, "lat": 41.097716, "lon": 29.091728, "tags": {"bus": "yes", "highway": "bus_stop", "name": "Beykoz Di\u015f Sa\u011fl\u0131\u011f\u0131 Merkezi", "network": "\u0130ETT", "network:wikidata": "Q343136", "operator": "\u0130ETT", "public_transport": "platform", "public_transport:version": "2", "ref": "218921", "website": "https://iett.istanbul/StationDetail?dkod=218921"}}, {"type": "node", "id": 11536999386, "lat": 41.099353, "lon": 29.092216, "tags": {"bus": "yes", "highway": "bus_stop", "name": "Atat\u00fcrk \u0130lkokulu", "network": "\u0130ETT", "network:wikidata": "Q343136", "operator": "\u0130ETT", "public_transport": "platform", "public_transport:version": "2", "ref": "220852", "website": "https://iett.istanbul/StationDetail?dkod=220852"}}, {"type": "node", "id": 11536999387, "lat": 41.094605, "lon": 29.092259, "tags": {"bus": "yes", "highway": "bus_stop", "name": "Yakut Sokak", "network": "\u0130ETT", "network:wikidata": "Q343136", "operator": "\u0130ETT", "public_transport": "platform", "public_transport:version": "2", "ref": "220981", "website": "https://iett.istanbul/StationDetail?dkod=220981"}}, {"type": "node", "id": 11537031117, "lat": 41.090252, "lon": 29.080757, "tags": {"bus": "yes", "highway": "bus_stop", "name": "Kavac\u0131k D\u00f6rtyol", "network": "\u0130ETT", "network:wikidata": "Q343136", "operator": "\u0130ETT", "public_transport": "platform", "public_transport:version": "2", "ref": "220693", "website": "https://iett.istanbul/StationDetail?dkod=220693"}}, {"type": "node", "id": 11537031118, "lat": 41.088898, "lon": 29.078239, "tags": {"bus": "yes", "highway": "bus_stop", "name": "Spor Tesisleri", "network": "\u0130ETT", "network:wikidata": "Q343136", "operator": "\u0130ETT", "public_transport": "platform", "public_transport:version": "2", "ref": "220702", "website": "https://iett.istanbul/StationDetail?dkod=220702"}}, {"type": "node", "id": 11537031119, "lat": 41.086808, "lon": 29.077847, "tags": {"bus": "yes", "highway": "bus_stop", "name": "Mahur Sokak", "network": "\u0130ETT", "network:wikidata": "Q343136", "operator": "\u0130ETT", "public_transport": "platform", "public_transport:version": "2", "ref": "220721", "website": "https://iett.istanbul/StationDetail?dkod=220721"}}, {"type": "node", "id": 11537031120, "lat": 41.090304, "lon": 29.080637, "tags": {"bus": "yes", "highway": "bus_stop", "name": "Kavac\u0131k D\u00f6rtyol", "network": "\u0130ETT", "network:wikidata": "Q343136", "operator": "\u0130ETT", "public_transport": "platform", "public_transport:version": "2", "ref": "220694", "website": "https://iett.istanbul/StationDetail?dkod=220694"}}, {"type": "node", "id": 11537031121, "lat": 41.088943, "lon": 29.078122, "tags": {"bus": "yes", "highway": "bus_stop", "name": "Spor Tesisleri", "network": "\u0130ETT", "network:wikidata": "Q343136", "operator": "\u0130ETT", "public_transport": "platform", "public_transport:version": "2", "ref": "220701", "website": "https://iett.istanbul/StationDetail?dkod=220701"}}, {"type": "node", "id": 11537031124, "lat": 41.086779, "lon": 29.077648, "tags": {"bus": "yes", "highway": "bus_stop", "name": "Mahur Sokak", "network": "\u0130ETT", "network:wikidata": "Q343136", "operator": "\u0130ETT", "public_transport": "platform", "public_transport:version": "2", "ref": "220722", "website": "https://iett.istanbul/StationDetail?dkod=220722"}}, {"type": "node", "id": 11537111916, "lat": 41.097002, "lon": 29.080922, "tags": {"bus": "yes", "highway": "bus_stop", "name": "Tekke", "network": "\u0130ETT", "network:wikidata": "Q343136", "operator": "\u0130ETT", "public_transport": "platform", "public_transport:version": "2", "ref": "220761", "website": "https://iett.istanbul/StationDetail?dkod=220761"}}, {"type": "node", "id": 11537111919, "lat": 41.095151, "lon": 29.086909, "tags": {"bus": "yes", "highway": "bus_stop", "name": "Ozanlar", "network": "\u0130ETT", "network:wikidata": "Q343136", "operator": "\u0130ETT", "public_transport": "platform", "public_transport:version": "2", "ref": "220753", "website": "https://iett.istanbul/StationDetail?dkod=220753"}}, {"type": "node", "id": 11537111922, "lat": 41.095236, "lon": 29.086913, "tags": {"bus": "yes", "highway": "bus_stop", "name": "Ozanlar", "network": "\u0130ETT", "network:wikidata": "Q343136", "operator": "\u0130ETT", "public_transport": "platform", "public_transport:version": "2", "ref": "220754", "website": "https://iett.istanbul/StationDetail?dkod=220754"}}, {"type": "node", "id": 11537111925, "lat": 41.097188, "lon": 29.080851, "tags": {"bus": "yes", "highway": "bus_stop", "name": "Tekke", "network": "\u0130ETT", "network:wikidata": "Q343136", "operator": "\u0130ETT", "public_transport": "platform", "public_transport:version": "2", "ref": "220762", "website": "https://iett.istanbul/StationDetail?dkod=220762"}}, {"type": "node", "id": 11663749990, "lat": 41.087486, "lon": 29.093446, "tags": {"bus": "yes", "highway": "bus_stop", "name": "Kavac\u0131k K\u00f6pr\u00fcs\u00fc", "network": "\u0130ETT", "network:wikidata": "Q343136", "operator": "\u0130ETT", "public_transport": "platform", "public_transport:version": "2", "ref": "220641", "website": "https://iett.istanbul/StationDetail?dkod=220641"}}, {"type": "node", "id": 11663763196, "lat": 41.089521, "lon": 29.089946, "tags": {"bus": "yes", "highway": "bus_stop", "name": "Kavac\u0131k K\u00f6pr\u00fcs\u00fc", "network": "\u0130ETT", "network:wikidata": "Q343136", "operator": "\u0130ETT", "public_transport": "platform", "public_transport:version": "2", "ref": "220642", "website": "https://iett.istanbul/StationDetail?dkod=220642"}}, {"type": "way", "id": 463066875, "nodes": [4583816370, 9727646232, 9727646321, 9727646233, 9727646322, 320933977, 4583816373, 4583816374, 4583816375, 4583816376, 4583816377, 4583816378, 4583816370], "tags": {"amenity": "bus_station", "building": "no", "bus": "yes", "name": "\u0130ETT Kavac\u0131k Peronlar\u0131", "network": "\u0130ETT", "operator": "\u0130BB", "public_transport": "station"}}]}