{"version": 0.6, "generator": "Overpass API 0.7.62.5 1bd436f1", "osm3s": {"timestamp_osm_base": "2025-03-28T16:33:05Z", "copyright": "The data included in this document is from www.openstreetmap.org. The data is made available under ODbL."}, "elements": [{"type": "node", "id": 2375177932, "lat": 41.0344026, "lon": 28.6803399}, {"type": "node", "id": 6135813486, "lat": 41.0352854, "lon": 28.6785057, "tags": {"internet_access": "wlan", "name": "\u0130leti\u015fim Kral\u0131", "name:ar": "\u0627\u0644\u0645\u0644\u0643 \u0644\u0644\u0627\u062a\u0635\u0627\u0644\u0627\u062a", "name:en": "King of Communications", "opening_hours": "Mo-Su 10:00-22:00", "phone": "+905396182231", "shop": "mobile_phone"}}, {"type": "node", "id": 6603859007, "lat": 41.0344236, "lon": 28.680341}, {"type": "node", "id": 6603859008, "lat": 41.0345242, "lon": 28.6812664}, {"type": "node", "id": 6603859009, "lat": 41.0345324, "lon": 28.6812138}, {"type": "node", "id": 6603859010, "lat": 41.0345522, "lon": 28.6811882}, {"type": "node", "id": 6603859011, "lat": 41.0346067, "lon": 28.680879}, {"type": "node", "id": 6603859013, "lat": 41.0342021, "lon": 28.6811999}, {"type": "node", "id": 6603859014, "lat": 41.0343825, "lon": 28.6803492}, {"type": "node", "id": 6603859015, "lat": 41.0346121, "lon": 28.6804017}, {"type": "node", "id": 9141668126, "lat": 41.0289765, "lon": 28.6829052, "tags": {"name": "Ar\u00e7elik", "shop": "appliance"}}, {"type": "node", "id": 9767299509, "lat": 41.0274724, "lon": 28.6922396}, {"type": "node", "id": 9767299511, "lat": 41.027349, "lon": 28.6921224}, {"type": "node", "id": 9767299512, "lat": 41.0274551, "lon": 28.6920887}, {"type": "node", "id": 10054425765, "lat": 41.0293217, "lon": 28.6819457, "tags": {"brand": "\u015eok", "brand:wikidata": "Q19613992", "name": "\u015eok", "shop": "supermarket"}}, {"type": "node", "id": 10613231005, "lat": 41.0347638, "lon": 28.6830031, "tags": {"shop": "ticket"}}, {"type": "node", "id": 10681883105, "lat": 41.0304935, "lon": 28.6709097, "tags": {"shop": "video_games"}}, {"type": "node", "id": 10693673515, "lat": 41.0273771, "lon": 28.6922802}, {"type": "node", "id": 10693673516, "lat": 41.0273501, "lon": 28.6921535}, {"type": "node", "id": 10722078032, "lat": 41.0327035, "lon": 28.6785508, "tags": {"name": "Serhat kitapevi", "shop": "stationery"}}, {"type": "node", "id": 10733419087, "lat": 41.0345785, "lon": 28.6811956}, {"type": "node", "id": 10733419088, "lat": 41.0346335, "lon": 28.6808924}, {"type": "node", "id": 10733419089, "lat": 41.0346231, "lon": 28.6807982}, {"type": "node", "id": 10733419090, "lat": 41.0346065, "lon": 28.6807914}, {"type": "node", "id": 10733419091, "lat": 41.0346209, "lon": 28.6807013}, {"type": "node", "id": 10733419092, "lat": 41.0346045, "lon": 28.680696}, {"type": "node", "id": 10733419093, "lat": 41.0346223, "lon": 28.6805854}, {"type": "node", "id": 10733419094, "lat": 41.0345881, "lon": 28.6805721}, {"type": "node", "id": 10733419095, "lat": 41.0343606, "lon": 28.6803654}, {"type": "node", "id": 10733419096, "lat": 41.0343452, "lon": 28.6803891}, {"type": "node", "id": 10733419097, "lat": 41.0343352, "lon": 28.6804153}, {"type": "node", "id": 10739903545, "lat": 41.0343379, "lon": 28.6812113}, {"type": "node", "id": 10739903546, "lat": 41.0343337, "lon": 28.68124}, {"type": "node", "id": 10874116507, "lat": 41.0453205, "lon": 28.6791986, "tags": {"addr:housenumber": "1", "addr:postcode": "34510", "addr:street": "794. Sokak", "name": "Yabi Ekmek F\u0131r\u0131n\u0131", "name:en": "Yabi Bakery", "opening_hours": "Mo-Su 05:00-23:00", "shop": "bakery"}}, {"type": "node", "id": 11515830114, "lat": 41.0369203, "lon": 28.6694242}, {"type": "node", "id": 11515830115, "lat": 41.0369567, "lon": 28.669264}, {"type": "node", "id": 11515830116, "lat": 41.0368507, "lon": 28.6692625}, {"type": "node", "id": 11515830117, "lat": 41.0368302, "lon": 28.6693426}, {"type": "node", "id": 11519209114, "lat": 41.0305277, "lon": 28.6706259, "tags": {"brand": "Vatan Bilgisayar", "brand:wikidata": "Q6048050", "name": "Vatan Bilgisayar", "shop": "electronics"}}, {"type": "node", "id": 11597376327, "lat": 41.032102, "lon": 28.674227, "tags": {"brand": "Shell Select", "brand:wikidata": "Q110716465", "name": "Shell Select", "shop": "convenience"}}, {"type": "way", "id": 236641498, "nodes": [6603859007, 2375177932, 6603859014, 10733419095, 10733419096, 10733419097, 6603859013, 10739903546, 10739903545, 6603859008, 6603859009, 6603859010, 10733419087, 10733419088, 6603859011, 10733419089, 10733419090, 10733419091, 10733419092, 10733419093, 10733419094, 6603859015, 6603859007], "tags": {"building": "yes", "name": "Eskule AVM", "shop": "mall"}}, {"type": "way", "id": 1063295847, "nodes": [9767299512, 9767299509, 10693673515, 10693673516, 9767299511, 9767299512], "tags": {"building": "yes", "name": "Eskipazar Unlu Mam\u00fclleri", "shop": "bakery"}}, {"type": "way", "id": 1239583064, "nodes": [11515830114, 11515830115, 11515830116, 11515830117, 11515830114], "tags": {"brand": "\u0130stanbul Halk Ekmek", "brand:wikidata": "Q6073041", "building": "yes", "name": "\u0130stanbul Halk Ekmek", "shop": "bakery"}}]}