{"version": 0.6, "generator": "Overpass API 0.7.62.5 1bd436f1", "osm3s": {"timestamp_osm_base": "2025-03-28T18:25:15Z", "copyright": "The data included in this document is from www.openstreetmap.org. The data is made available under ODbL."}, "elements": [{"type": "node", "id": 5667668961, "lat": 41.0500382, "lon": 28.8417488, "tags": {"addr:city": "Istanbul", "addr:district": "Ba\u011fc\u0131lar", "addr:street": "Ye\u015fil\u0131rmak sokak", "name": "Beka", "name:ar": "\u0628\u0643\u0627", "shop": "bakery"}}, {"type": "node", "id": 5667668965, "lat": 41.052698, "lon": 28.842453, "tags": {"addr:city": "Istanbul", "addr:district": "Ba\u011fc\u0131lar", "addr:street": "1851. Sokak", "name": "Aslan Market", "name:ar": "\u0645\u0627\u0631\u0643\u062a \u0627\u0644\u0623\u0633\u062f", "shop": "convenience"}}, {"type": "node", "id": 5667668975, "lat": 41.0503731, "lon": 28.8429932, "tags": {"addr:city": "Istanbul", "addr:district": "Ba\u011fc\u0131lar", "addr:street": "CAM\u0130 CADDESI", "name": "FAYZA", "name:ar": "\u0641\u064a\u0636\u0627\u0621", "shop": "convenience"}}, {"type": "node", "id": 5667668990, "lat": 41.0547473, "lon": 28.8430361, "tags": {"addr:city": "Istanbul", "addr:district": "Ba\u011fc\u0131lar", "addr:street": "CAM\u0130 CADDES\u0130", "craft": "bakery", "name": "Mis", "name:ar": "\u0645\u064a\u0633", "shop": "bakery"}}, {"type": "node", "id": 5667670059, "lat": 41.0507977, "lon": 28.8417671, "tags": {"addr:city": "Istanbul", "addr:district": "Ba\u011fc\u0131lar", "addr:street": "Velio\u011flu caddesi", "name": "Merkez Kuruyemi\u015f", "name:ar": "\u0645\u0631\u0643\u0632 \u0643\u0648\u0631\u0648\u064a\u0645\u064a\u0634", "shop": "convenience"}}, {"type": "node", "id": 5667672270, "lat": 41.0507639, "lon": 28.8475987, "tags": {"addr:city": "Istanbul", "addr:district": "Ba\u011fc\u0131lar", "name": "Elif Market", "name:ar": "\u0645\u0627\u0631\u0643\u062a \u0627\u0644\u064a\u0641", "shop": "convenience"}}, {"type": "node", "id": 5667672279, "lat": 41.0559485, "lon": 28.8467152, "tags": {"addr:city": "Istanbul", "addr:district": "Ba\u011fc\u0131lar", "name": "F\u0131rat market", "name:ar": "\u0641\u0631\u0627\u062a \u0645\u0627\u0631\u0643\u062a", "shop": "supermarket"}}, {"type": "node", "id": 5667672284, "lat": 41.0548075, "lon": 28.8468165, "tags": {"addr:city": "Istanbul", "addr:district": "Ba\u011fc\u0131lar", "name": "Yusuf unlu mamulleri", "name:ar": "\u0645\u062e\u0628\u0632 \u064a\u0648\u0633\u0641", "shop": "bakery"}}, {"type": "node", "id": 5667672301, "lat": 41.0505017, "lon": 28.8493107, "tags": {"addr:city": "Istanbul", "addr:district": "Zeytinburnu", "brand": "A101", "brand:wikidata": "Q6034496", "brand:wikipedia": "tr:A101", "name": "A101", "name:ar": "\u0633\u0648\u0628\u0631 \u0645\u0627\u0631\u0643\u062a", "opening_hours": "Mo-Su 09:00-21:30", "shop": "supermarket"}}, {"type": "node", "id": 5667672308, "lat": 41.0531865, "lon": 28.8494177, "tags": {"addr:city": "Istanbul", "addr:district": "Zeytinburnu", "name": "G\u00dcM\u00dc\u015eKALE MARKET", "shop": "convenience"}}, {"type": "node", "id": 5667672622, "lat": 41.0537886, "lon": 28.8483383, "tags": {"addr:city": "Istanbul", "addr:district": "Ba\u011fc\u0131lar", "name": "\u00c7elik gida", "name:ar": "\u0628\u0642\u0627\u0644\u0629 \u062c\u0644\u064a\u0643", "shop": "convenience"}}, {"type": "node", "id": 5667672625, "lat": 41.0524618, "lon": 28.8463677, "tags": {"addr:city": "Istanbul", "addr:district": "Ba\u011fc\u0131lar", "name": "Birlik market", "name:ar": "\u0628\u064a\u0631\u0644\u064a\u0643 \u0645\u0627\u0631\u0643\u062a", "shop": "supermarket"}}, {"type": "node", "id": 5667672648, "lat": 41.055933, "lon": 28.8463467, "tags": {"addr:city": "Istanbul", "addr:district": "Ba\u011fc\u0131lar", "name": "\u0130smer market", "name:ar": "\u0627\u0633\u0645\u0631 \u0645\u0627\u0631\u0643\u062a", "shop": "supermarket"}}, {"type": "node", "id": 5667672666, "lat": 41.0585134, "lon": 28.854725, "tags": {"addr:city": "Istanbul", "addr:district": "Ba\u011fc\u0131lar", "addr:street": "13. sokak", "name": "Azim Temizlik", "name:ar": "\u0639\u0632\u0645 \u062a\u064a\u0645\u064a\u0632\u0644\u0643", "shop": "convenience"}}, {"type": "node", "id": 5667672667, "lat": 41.0520939, "lon": 28.8476698, "tags": {"addr:city": "Istanbul", "addr:district": "Ba\u011fc\u0131lar", "name": "Atlay Market", "name:ar": "\u0627\u062a\u0644\u0627\u064a \u0645\u0627\u0631\u0643\u062a", "shop": "supermarket"}}, {"type": "node", "id": 5667672675, "lat": 41.0530316, "lon": 28.8384822, "tags": {"addr:city": "Istanbul", "addr:district": "Ba\u011fc\u0131lar", "addr:street": "velio\u011flu caddesi", "craft": "bakery", "name": "Tarihi F\u0131r\u0131n", "name:ar": "\u062a\u0627\u0631\u064a\u062e\u064a", "shop": "bakery"}}, {"type": "node", "id": 5667672684, "lat": 41.0578389, "lon": 28.854867, "tags": {"addr:city": "Istanbul", "addr:district": "Ba\u011fc\u0131lar", "addr:street": "Barbaros caddesi", "name": "Kamer", "name:ar": "\u0643\u0627\u0645\u064a\u0631", "shop": "supermarket"}}, {"type": "node", "id": 5667672699, "lat": 41.0564312, "lon": 28.8525599, "tags": {"addr:city": "Istanbul", "addr:district": "Ba\u011fc\u0131lar", "addr:street": "Matbaacilar caddesi", "brand": "Migros Jet", "brand:wikidata": "Q1754510", "brand:wikipedia": "tr:Migros (T\u00fcrkiye)", "name": "Migros Jet", "shop": "supermarket"}}, {"type": "node", "id": 5667672707, "lat": 41.0526603, "lon": 28.8440424, "tags": {"addr:city": "Istanbul", "addr:district": "Ba\u011fc\u0131lar", "addr:street": "1835. Sokak", "name": "S\u0131la Market", "name:ar": "\u0635\u0644\u0627 \u0645\u0627\u0631\u0643\u062a", "shop": "convenience"}}, {"type": "node", "id": 5667672718, "lat": 41.0526818, "lon": 28.849391, "tags": {"addr:city": "Istanbul", "addr:district": "Zeytinburnu", "name": "PRAT\u0130K \u0130\u015eLEM", "name:ar": "\u0645\u0631\u0643\u0632 \u062f\u0641\u0639", "shop": "convenience"}}, {"type": "node", "id": 5667673325, "lat": 41.0558797, "lon": 28.8545701, "tags": {"addr:city": "Istanbul", "addr:district": "Ba\u011fc\u0131lar", "addr:street": "Matbaacilar caddesi", "name": "Umut", "name:ar": "\u0627\u0648\u0645\u0648\u062a", "shop": "convenience"}}, {"type": "node", "id": 5667673328, "lat": 41.0632751, "lon": 28.8529501, "tags": {"addr:city": "Istanbul", "addr:district": "Ba\u011fc\u0131lar", "addr:street": "K\u0131\u015fla caddesi", "name": "\u0130kram", "name:ar": "\u0627\u0643\u0631\u0627\u0645", "shop": "convenience"}}, {"type": "node", "id": 5667673334, "lat": 41.0504971, "lon": 28.8421222, "tags": {"addr:city": "Istanbul", "addr:district": "Ba\u011fc\u0131lar", "addr:street": "velio\u011flu caddesi", "craft": "bakery", "name": "\u00dcst\u00fcn F\u0131r\u0131n", "name:ar": "\u0627\u0648\u0633\u062a\u0648\u0646", "shop": "bakery"}}, {"type": "node", "id": 5667673339, "lat": 41.0600308, "lon": 28.8546732, "tags": {"addr:city": "Istanbul", "addr:district": "Ba\u011fc\u0131lar", "addr:street": "Barbaros caddesi", "name": "Bur\u00e7ak", "name:ar": "\u0628\u0648\u0631\u062c\u0627\u0643", "shop": "bakery"}}, {"type": "node", "id": 5667673340, "lat": 41.0557513, "lon": 28.8479259, "tags": {"addr:city": "Istanbul", "addr:district": "Ba\u011fc\u0131lar", "name": "As\u0131l market", "name:ar": "\u0645\u0627\u0631\u0643\u062a \u0627\u0635\u064a\u0644", "shop": "supermarket"}}, {"type": "node", "id": 5667673361, "lat": 41.0548545, "lon": 28.8429923, "tags": {"addr:city": "Istanbul", "addr:district": "Ba\u011fc\u0131lar", "addr:street": "CAM\u0130 CADDESI", "brand": "B\u0130M", "brand:wikidata": "Q1022075", "brand:wikipedia": "en:Bim (company)", "name": "B\u0130M", "name:ar": "\u0628\u064a\u0645", "opening_hours": "Mo-Su 09:00-21:00", "shop": "supermarket"}}, {"type": "node", "id": 5667673364, "lat": 41.053208, "lon": 28.8464695, "tags": {"addr:city": "Istanbul", "addr:district": "Ba\u011fc\u0131lar", "name": "Melisa kuruyemi\u015f", "name:ar": "\u0645\u0644\u064a\u0633\u0627 \u0644\u0644\u0645\u0643\u0633\u0631\u0627\u062a \u0648\u0627\u0644\u0627\u0639\u0634\u0627\u0628", "shop": "convenience"}}, {"type": "node", "id": 5667673365, "lat": 41.0582709, "lon": 28.8522941, "tags": {"addr:city": "Istanbul", "addr:district": "Ba\u011fc\u0131lar", "addr:street": "K\u0131\u015fla caddesi", "name": "Hasano\u011flu Market", "name:ar": "\u062d\u0633\u0646 \u0627\u0648\u063a\u0644\u0648 \u0645\u0627\u0631\u0643\u062a", "shop": "convenience"}}, {"type": "node", "id": 5667673374, "lat": 41.0601896, "lon": 28.8546869, "tags": {"addr:city": "Istanbul", "addr:district": "Ba\u011fc\u0131lar", "addr:street": "Barbaros caddesi", "name": "Y\u00fczy\u0131l", "name:ar": "\u064a\u0648\u0632 \u064a\u0644", "shop": "convenience"}}, {"type": "node", "id": 5667673375, "lat": 41.0525122, "lon": 28.8478547, "tags": {"addr:city": "Istanbul", "addr:district": "Ba\u011fc\u0131lar", "name": "\u0130nal Market", "name:ar": "\u0645\u0627\u0631\u0643\u062a \u0627\u064a\u0646\u0627\u0644", "shop": "convenience"}}, {"type": "node", "id": 5667673380, "lat": 41.0568544, "lon": 28.8551197, "tags": {"addr:city": "Istanbul", "addr:district": "Ba\u011fc\u0131lar", "addr:street": "Barbaros caddesi", "name": "Rota", "name:ar": "\u0631\u0648\u062a\u0627", "shop": "supermarket"}}, {"type": "node", "id": 5667673382, "lat": 41.0605597, "lon": 28.8528343, "tags": {"addr:city": "Istanbul", "addr:district": "Ba\u011fc\u0131lar", "addr:street": "K\u0131\u015fla caddesi", "name": "Ay Mar market", "name:ar": "\u0627\u064a \u0645\u0627\u0631 \u0645\u0627\u0631\u0643\u062a", "shop": "convenience"}}, {"type": "node", "id": 5667673388, "lat": 41.0535741, "lon": 28.8472289, "tags": {"addr:city": "Istanbul", "addr:district": "Ba\u011fc\u0131lar", "name": "Dalyan mini market", "name:ar": "\u062f\u0627\u0644\u064a\u0627\u0646 \u0645\u0627\u0631\u0643\u062a", "shop": "convenience"}}, {"type": "node", "id": 5667673402, "lat": 41.0619216, "lon": 28.8527015, "tags": {"addr:city": "Istanbul", "addr:district": "Ba\u011fc\u0131lar", "addr:street": "K\u0131\u015fla caddesi", "name": "Akyol", "name:ar": "\u0627\u0643 \u064a\u0648\u0644", "shop": "convenience"}}, {"type": "node", "id": 5667673421, "lat": 41.0507036, "lon": 28.849391, "tags": {"addr:city": "Istanbul", "addr:district": "Zeytinburnu", "name": "\u00c7EREZC\u0130M", "name:ar": "\u0645\u062d\u0644 \u062d\u0644\u0648\u064a\u0627\u062a", "shop": "convenience"}}, {"type": "node", "id": 5667673428, "lat": 41.0639785, "lon": 28.8556274, "tags": {"addr:city": "Istanbul", "addr:district": "Ba\u011fc\u0131lar", "addr:street": "Barbaros caddesi", "name": "Ahmeto\u011fullar\u0131", "name:ar": "\u0627\u062d\u0645\u062f \u0627\u0648\u063a\u0648\u0644\u0627\u0631\u0649", "shop": "convenience"}}, {"type": "node", "id": 5667673430, "lat": 41.0575047, "lon": 28.8525771, "tags": {"addr:city": "Istanbul", "addr:district": "Ba\u011fc\u0131lar", "addr:street": "9. sokak", "name": "Gaziantep Y\u00f6resel Market", "name:ar": "\u063a\u0627\u0632\u064a \u0639\u0646\u062a\u0627\u0628 \u064a\u0648\u0631\u064a\u0633\u064a\u0644 \u0645\u0627\u0631\u0643\u062a", "shop": "convenience"}}, {"type": "node", "id": 5667673433, "lat": 41.0562517, "lon": 28.851096, "tags": {"addr:city": "Istanbul", "addr:district": "Ba\u011fc\u0131lar", "addr:street": "Matbaacilar caddesi", "name": "Anatolya", "name:ar": "\u0627\u0646\u0627\u062a\u0648\u0644\u064a\u0627", "shop": "convenience"}}, {"type": "node", "id": 5667673444, "lat": 41.0582458, "lon": 28.8536719, "tags": {"addr:city": "Istanbul", "addr:district": "Ba\u011fc\u0131lar", "addr:street": "13. sokak", "name": "K\u0131l\u0131n\u00e7", "name:ar": "\u0643\u064a\u0644\u064a\u0646\u062c", "shop": "convenience"}}, {"type": "node", "id": 5667673446, "lat": 41.062509, "lon": 28.8525514, "tags": {"addr:city": "Istanbul", "addr:district": "Ba\u011fc\u0131lar", "addr:street": "K\u0131\u015fla caddesi", "name": "\u0130kbal G\u0131da", "name:ar": "\u0623\u063a\u0630\u064a\u0629 \u0627\u0642\u0628\u0627\u0644", "shop": "convenience"}}, {"type": "node", "id": 5667673459, "lat": 41.0513698, "lon": 28.8409866, "tags": {"addr:city": "Istanbul", "addr:district": "Ba\u011fc\u0131lar", "addr:street": "velio\u011flu caddesi", "name": "G\u00fcnd\u00fcz", "name:ar": "\u063a\u0648\u0646\u062f\u0648\u0632", "shop": "supermarket"}}, {"type": "node", "id": 5667673465, "lat": 41.0581347, "lon": 28.8504678, "tags": {"addr:city": "Istanbul", "addr:district": "Ba\u011fc\u0131lar", "addr:street": "8. sokak", "name": "Rezan", "name:ar": "\u0631\u0632\u0627\u0646", "shop": "convenience"}}, {"type": "node", "id": 5667673472, "lat": 41.0580672, "lon": 28.852114, "tags": {"addr:city": "Istanbul", "addr:district": "Ba\u011fc\u0131lar", "addr:street": "K\u0131\u015fla caddesi", "name": "Mente\u015f Market", "name:ar": "\u0645\u064a\u0646\u0646\u064a\u0634 \u0645\u0627\u0631\u0643\u062a", "shop": "convenience"}}, {"type": "node", "id": 5667673474, "lat": 41.052914, "lon": 28.8494311, "tags": {"addr:city": "Istanbul", "addr:district": "Zeytinburnu", "name": "Huzur S\u00fcpermarket", "shop": "supermarket"}}, {"type": "node", "id": 5667673495, "lat": 41.0507172, "lon": 28.8571611, "tags": {"addr:city": "Istanbul", "addr:district": "Ba\u011fc\u0131lar", "addr:street": "2/17A Sokak", "name": "Market", "name:ar": "\u0628\u0642\u0627\u0644\u0629", "shop": "supermarket"}}, {"type": "node", "id": 5667673502, "lat": 41.0640045, "lon": 28.8556298, "tags": {"addr:city": "Istanbul", "addr:district": "Ba\u011fc\u0131lar", "addr:street": "Barbaros caddesi", "name": "Altun Bo\u011fa", "name:ar": "\u0627\u0644\u062a\u0648\u0646 \u0628\u0648\u063a\u0627", "shop": "bakery"}}, {"type": "node", "id": 5667673506, "lat": 41.0510746, "lon": 28.8559106, "tags": {"addr:city": "Istanbul", "addr:district": "Ba\u011fc\u0131lar", "addr:street": "2110 Sokak", "name": "Akg\u00fcller Hipermarketleri", "name:ar": "\u0645\u0627\u0631\u0643\u0629 \u0627\u0644\u0636\u062d\u0643\u0629 \u0627\u0644\u0648\u0631\u0648\u062f \u0627\u0644\u0628\u064a\u0636\u0627\u0621", "shop": "supermarket"}}, {"type": "node", "id": 5667673507, "lat": 41.0586963, "lon": 28.8547968, "tags": {"addr:city": "Istanbul", "addr:district": "Ba\u011fc\u0131lar", "addr:street": "Barbaros caddesi", "name": "Ayg\u00fcl", "name:ar": "\u0627\u064a \u0643\u0648\u0644", "shop": "convenience"}}, {"type": "node", "id": 5667673512, "lat": 41.0523234, "lon": 28.8432239, "tags": {"addr:city": "Istanbul", "addr:district": "Ba\u011fc\u0131lar", "addr:street": "CAM\u0130 CADDESI", "name": "YAYLA", "name:ar": "\u064a\u0627\u064a\u0644\u0627", "shop": "convenience"}}, {"type": "node", "id": 5667673516, "lat": 41.0628484, "lon": 28.8525771, "tags": {"addr:city": "Istanbul", "addr:district": "Ba\u011fc\u0131lar", "addr:street": "K\u0131\u015fla caddesi", "name": "Re\u015fadiye", "name:ar": "\u0631\u0634\u0627\u062f\u064a\u0629", "shop": "bakery"}}, {"type": "node", "id": 5667673519, "lat": 41.0608022, "lon": 28.8528472, "tags": {"addr:city": "Istanbul", "addr:district": "Ba\u011fc\u0131lar", "addr:street": "K\u0131\u015fla caddesi", "name": "Alt\u0131n", "name:ar": "\u0627\u0644\u062a\u0646", "shop": "convenience"}}, {"type": "node", "id": 5667673533, "lat": 41.0528327, "lon": 28.8464016, "tags": {"addr:city": "Istanbul", "addr:district": "Ba\u011fc\u0131lar", "name": "Bizim F\u0131r\u0131n", "name:ar": "\u0641\u0631\u0646 \u0628\u064a\u0632\u064a\u0645", "shop": "bakery"}}, {"type": "node", "id": 5667673543, "lat": 41.0579702, "lon": 28.852114, "tags": {"addr:city": "Istanbul", "addr:district": "Ba\u011fc\u0131lar", "addr:street": "K\u0131\u015fla caddesi", "name": "Tanlar", "name:ar": "\u062a\u0627\u0646\u0644\u0627\u0631", "shop": "bakery"}}, {"type": "node", "id": 5667673547, "lat": 41.0514284, "lon": 28.8495673, "tags": {"addr:city": "Istanbul", "addr:district": "Zeytinburnu", "name": "Ye\u011fenler", "shop": "supermarket"}}, {"type": "node", "id": 5667673549, "lat": 41.0541368, "lon": 28.8430361, "tags": {"addr:city": "Istanbul", "addr:district": "Ba\u011fc\u0131lar", "addr:street": "1860. Sokak", "name": "Bereket", "name:ar": "\u0645\u062e\u0632\u0646 \u0628\u0631\u0643\u0627\u062a", "shop": "convenience"}}, {"type": "node", "id": 5667673550, "lat": 41.0621599, "lon": 28.8524613, "tags": {"addr:city": "Istanbul", "addr:district": "Ba\u011fc\u0131lar", "addr:street": "K\u0131\u015fla caddesi", "name": "Hisar", "name:ar": "\u062d\u0635\u0627\u0631", "shop": "convenience"}}, {"type": "node", "id": 5667673561, "lat": 41.0624003, "lon": 28.850786, "tags": {"addr:city": "Istanbul", "addr:district": "Ba\u011fc\u0131lar", "addr:street": "Veysel karani caddesi", "name": "Gamze Market", "name:ar": "\u063a\u0645\u0632\u0647 \u0645\u0627\u0631\u0643\u062a", "shop": "convenience"}}, {"type": "node", "id": 5667673572, "lat": 41.0541112, "lon": 28.8464081, "tags": {"addr:city": "Istanbul", "addr:district": "Ba\u011fc\u0131lar", "brand": "A101", "brand:wikidata": "Q6034496", "brand:wikipedia": "tr:A101", "name": "A101", "name:ar": "A101", "opening_hours": "Mo-Su 09:00-21:30", "shop": "supermarket"}}, {"type": "node", "id": 5667673575, "lat": 41.0567967, "lon": 28.8520883, "tags": {"addr:city": "Istanbul", "addr:district": "Ba\u011fc\u0131lar", "addr:street": "K\u0131\u015fla caddesi", "name": "\u00d6zmar", "name:ar": "\u0627\u0648\u0632\u0645\u0627\u0631", "shop": "convenience"}}, {"type": "node", "id": 5667673580, "lat": 41.051289, "lon": 28.8493508, "tags": {"addr:city": "Istanbul", "addr:district": "Zeytinburnu", "brand": "\u015eok", "brand:wikidata": "Q19613992", "brand:wikipedia": "tr:\u015eok (market)", "name": "\u015eok", "name:ar": "\u0634\u0648\u0643 \u0633\u0648\u0628\u0631 \u0645\u0627\u0631\u0643\u062a", "shop": "supermarket"}}, {"type": "node", "id": 5667673589, "lat": 41.0634691, "lon": 28.8529629, "tags": {"addr:city": "Istanbul", "addr:district": "Ba\u011fc\u0131lar", "addr:street": "K\u0131\u015fla caddesi", "name": "Birlik Market", "name:ar": "\u0628\u064a\u0631\u0644\u064a\u0643 \u0645\u0627\u0631\u0643\u062a", "shop": "convenience"}}, {"type": "node", "id": 5667673590, "lat": 41.0607892, "lon": 28.8535943, "tags": {"addr:city": "Istanbul", "addr:district": "Ba\u011fc\u0131lar", "addr:street": "31. sokak", "name": "G\u00fclery\u00fcz Market", "name:ar": "\u0643\u0648\u0644\u064a\u0631 \u064a\u0648\u0632 \u0645\u0627\u0631\u0643\u062a", "shop": "supermarket"}}, {"type": "node", "id": 5667673599, "lat": 41.0503503, "lon": 28.8493508, "tags": {"addr:city": "Istanbul", "addr:district": "Zeytinburnu", "name": "NADAS GIDA", "name:ar": "\u062e\u0636\u0631\u0648\u0627\u062a", "shop": "greengrocer"}}, {"type": "node", "id": 5667673619, "lat": 41.0619886, "lon": 28.8538438, "tags": {"addr:city": "Istanbul", "addr:district": "Ba\u011fc\u0131lar", "addr:street": "Pazar Sokak", "name": "Karde\u015fler Ekmek", "name:ar": "\u0643\u0627\u0631\u062f\u064a\u0634\u0644\u0631 \u0627\u0643\u0645\u064a\u0643", "shop": "bakery"}}, {"type": "node", "id": 5667673937, "lat": 41.0587509, "lon": 28.8535943, "tags": {"addr:city": "Istanbul", "addr:district": "Ba\u011fc\u0131lar", "addr:street": "11/2. sokak", "name": "Yusuf Market", "name:ar": "\u0645\u0627\u0631\u0643\u062a \u064a\u0648\u0633\u0641", "shop": "convenience"}}, {"type": "node", "id": 5667673958, "lat": 41.0617142, "lon": 28.8539478, "tags": {"addr:city": "Istanbul", "addr:district": "Ba\u011fc\u0131lar", "addr:street": "Pazar Sokak", "name": "Anadolu \u015eark\u00fcteri", "name:ar": "\u0627\u0646\u0627\u0636\u0648\u0644\u0648 \u0634\u0627\u0631\u0643\u0648\u062a\u064a\u0631\u064a", "shop": "supermarket"}}, {"type": "node", "id": 5667673960, "lat": 41.05266, "lon": 28.8427219, "tags": {"addr:city": "Istanbul", "addr:district": "Ba\u011fc\u0131lar", "addr:street": "1851. Sokak", "craft": "bakery", "name": "Arslan", "name:ar": "\u0627\u0631\u0633\u0644\u0627\u0646", "shop": "bakery"}}, {"type": "node", "id": 5667673969, "lat": 41.051073, "lon": 28.8570943, "tags": {"addr:city": "Istanbul", "addr:district": "Ba\u011fc\u0131lar", "addr:street": "2/17 Sokak", "name": "Mira\u00e7 Market", "name:ar": "\u0628\u0642\u0627\u0644\u064a\u0629 \u0645\u0639\u0631\u0627\u062c", "shop": "supermarket"}}, {"type": "node", "id": 5667673971, "lat": 41.0562779, "lon": 28.8535629, "tags": {"addr:city": "Istanbul", "addr:district": "Ba\u011fc\u0131lar", "addr:street": "1. sokak", "name": "Mert G\u0131da", "name:ar": "\u0623\u063a\u0630\u064a\u0629 \u0645\u0631\u062a", "shop": "convenience"}}, {"type": "node", "id": 5667673972, "lat": 41.061628, "lon": 28.8537606, "tags": {"addr:city": "Istanbul", "addr:district": "Ba\u011fc\u0131lar", "addr:street": "Pazar Sokak", "name": "K\u0131yak Market", "name:ar": "\u0643\u064a\u0627\u0643 \u0645\u0627\u0631\u0643\u062a", "shop": "convenience"}}, {"type": "node", "id": 5667673977, "lat": 41.060311, "lon": 28.8537606, "tags": {"addr:city": "Istanbul", "addr:district": "Ba\u011fc\u0131lar", "addr:street": "21/1. sokak", "name": "Hafizo\u011fullar\u0131", "name:ar": "\u062d\u0627\u0641\u0638 \u0627\u0648\u063a\u0648\u0644\u0644\u0627\u0631\u0649", "shop": "supermarket"}}, {"type": "node", "id": 5667673986, "lat": 41.0512431, "lon": 28.8430893, "tags": {"addr:city": "Istanbul", "addr:district": "Ba\u011fc\u0131lar", "addr:street": "CAM\u0130 CADDESI", "name": "\u0645\u0627\u0631\u0643\u062a \u0627\u0644\u0645\u062d\u0628\u0629", "name:ar": "\u0645\u0627\u0631\u0643\u062a \u0627\u0644\u0645\u062d\u0628\u0629", "shop": "convenience"}}, {"type": "node", "id": 5667673987, "lat": 41.0618318, "lon": 28.8542805, "tags": {"addr:city": "Istanbul", "addr:district": "Ba\u011fc\u0131lar", "addr:street": "39. sokak", "name": "Elmoued", "name:ar": "\u0645\u064a\u0646\u064a \u0645\u0627\u0631\u0643\u062a \u0627\u0644\u0645\u0648\u0639\u062f", "shop": "convenience"}}, {"type": "node", "id": 5667674002, "lat": 41.0587431, "lon": 28.8537398, "tags": {"addr:city": "Istanbul", "addr:district": "Ba\u011fc\u0131lar", "addr:street": "11/2. sokak", "name": "\u00c7ubuk Ekmek", "name:ar": "\u062c\u0648\u0628\u0648\u0643 \u0627\u0643\u0645\u064a\u0643", "shop": "bakery"}}, {"type": "node", "id": 5667674007, "lat": 41.053604, "lon": 28.849493, "tags": {"addr:city": "Istanbul", "addr:district": "Zeytinburnu", "name": "Son durak", "name:ar": "\u0633\u0648\u0646 \u062f\u0648\u0631\u0627\u0643", "shop": "convenience"}}, {"type": "node", "id": 5667674015, "lat": 41.0534852, "lon": 28.843233, "tags": {"addr:city": "Istanbul", "addr:district": "Ba\u011fc\u0131lar", "addr:street": "CAM\u0130 CADDESI", "name": "Erdo\u011fanlar", "name:ar": "\u0623\u0631\u062f\u063a\u0648\u0646\u0627\u062a", "shop": "convenience"}}, {"type": "node", "id": 5667674019, "lat": 41.0601856, "lon": 28.853719, "tags": {"addr:city": "Istanbul", "addr:district": "Ba\u011fc\u0131lar", "addr:street": "27. sokak", "name": "Burak", "name:ar": "\u0628\u0631\u0627\u0642", "shop": "convenience"}}, {"type": "node", "id": 5667674020, "lat": 41.0629764, "lon": 28.8535943, "tags": {"addr:city": "Istanbul", "addr:district": "Ba\u011fc\u0131lar", "addr:street": "47. sokak", "brand": "B\u0130M", "brand:wikidata": "Q1022075", "brand:wikipedia": "en:Bim (company)", "name": "B\u0130M", "name:ar": "\u0628\u064a\u0645", "opening_hours": "Mo-Su 09:00-21:00", "shop": "supermarket"}}, {"type": "node", "id": 5667674424, "lat": 41.0532047, "lon": 28.8427079, "tags": {"addr:city": "Istanbul", "addr:district": "Ba\u011fc\u0131lar", "addr:street": "1855. Sokak", "name": "\u00dcst\u00fcnda\u011f G\u0131da", "name:ar": "\u0627\u0648\u0633\u062a\u0648\u0646\u062f\u0627\u063a \u063a\u0630\u0627\u0621", "shop": "convenience"}}, {"type": "node", "id": 5667674437, "lat": 41.0572671, "lon": 28.8542015, "tags": {"addr:city": "Istanbul", "addr:district": "Ba\u011fc\u0131lar", "addr:street": "7. sokak", "brand": "A101", "brand:wikidata": "Q6034496", "brand:wikipedia": "tr:A101", "name": "A101", "name:ar": "A.101", "opening_hours": "Mo-Su 09:00-21:30", "shop": "supermarket"}}, {"type": "node", "id": 5667674470, "lat": 41.0593781, "lon": 28.8542181, "tags": {"addr:city": "Istanbul", "addr:district": "Ba\u011fc\u0131lar", "addr:street": "21. sokak", "name": "Ak Sa\u011flam", "name:ar": "\u0627\u0643 \u0633\u0627\u063a\u0644\u0627\u0645", "shop": "supermarket"}}, {"type": "node", "id": 5667674486, "lat": 41.0505525, "lon": 28.8550741, "tags": {"addr:city": "Istanbul", "addr:district": "Ba\u011fc\u0131lar", "addr:street": "2110 Sokak", "name": "qri", "shop": "supermarket"}}, {"type": "node", "id": 5667674927, "lat": 41.054379, "lon": 28.8493692, "tags": {"addr:city": "Istanbul", "addr:district": "Zeytinburnu", "brand": "B\u0130M", "brand:wikidata": "Q1022075", "brand:wikipedia": "en:Bim (company)", "name": "B\u0130M", "name:ar": "\u0628\u064a\u0645 \u0645\u0627\u0631\u0643\u062a", "opening_hours": "Mo-Su 09:00-21:00", "shop": "supermarket"}}, {"type": "node", "id": 5667674936, "lat": 41.0503847, "lon": 28.8423563, "tags": {"addr:city": "Istanbul", "addr:district": "Ba\u011fc\u0131lar", "addr:street": "velio\u011flu caddesi", "brand": "B\u0130M", "brand:wikidata": "Q1022075", "brand:wikipedia": "en:Bim (company)", "name": "B\u0130M", "name:ar": "\u0628\u064a\u0645", "opening_hours": "Mo-Su 09:00-21:00", "shop": "supermarket"}}, {"type": "node", "id": 5667674963, "lat": 41.0528912, "lon": 28.8434517, "tags": {"addr:city": "Istanbul", "addr:district": "Ba\u011fc\u0131lar", "addr:street": "1834. SOKAK", "name": "Yasin Market", "name:ar": "\u064a\u0627\u0633\u064a\u0646 \u0645\u0627\u0631\u0643\u062a", "shop": "convenience"}}, {"type": "node", "id": 5667674971, "lat": 41.0507196, "lon": 28.8388076, "tags": {"addr:city": "Istanbul", "addr:district": "Ba\u011fc\u0131lar", "addr:street": "Oya sokak", "name": "G\u00fcven", "name:ar": "\u0643\u0648\u0641\u064a\u0646", "shop": "bakery"}}, {"type": "node", "id": 5667675008, "lat": 41.0506278, "lon": 28.8573551, "tags": {"addr:city": "Istanbul", "addr:district": "Ba\u011fc\u0131lar", "addr:street": "2/17A Sokak", "name": "Tuzluca Market", "shop": "supermarket"}}, {"type": "node", "id": 5667675012, "lat": 41.0506467, "lon": 28.8386949, "tags": {"addr:city": "Istanbul", "addr:district": "Ba\u011fc\u0131lar", "addr:street": "Oya sokak", "name": "Ko\u00e7 Market", "name:ar": "\u0643\u0648\u062c \u0645\u0627\u0631\u0643\u062a", "shop": "convenience"}}, {"type": "node", "id": 7167511974, "lat": 41.0639535, "lon": 28.8386089, "tags": {"name": "Onur", "shop": "supermarket"}}, {"type": "node", "id": 10031594234, "lat": 41.0547847, "lon": 28.8392991, "tags": {"name": "Makbul", "shop": "convenience"}}, {"type": "node", "id": 10031594237, "lat": 41.0547363, "lon": 28.8391073, "tags": {"brand": "B\u0130M", "brand:wikidata": "Q1022075", "name": "B\u0130M", "opening_hours": "Mo-Su 09:00-21:00", "shop": "supermarket"}}]}