{"version": 0.6, "generator": "Overpass API 0.7.62.5 1bd436f1", "osm3s": {"timestamp_osm_base": "2025-03-28T18:51:00Z", "copyright": "The data included in this document is from www.openstreetmap.org. The data is made available under ODbL."}, "elements": [{"type": "node", "id": 972066800, "lat": 40.9095128, "lon": 29.0558203, "tags": {"amenity": "ferry_terminal", "ferry": "yes", "name": "K\u0131nal\u0131ada", "network": "Turyol", "operator": "Turyol", "public_transport": "station"}}, {"type": "node", "id": 972066820, "lat": 40.9099506, "lon": 29.0560201}, {"type": "node", "id": 972066822, "lat": 40.9102993, "lon": 29.0557841}, {"type": "node", "id": 972066825, "lat": 40.9104858, "lon": 29.0557948}, {"type": "node", "id": 972636962, "lat": 40.9102213, "lon": 29.0558369, "tags": {"amenity": "ferry_terminal", "ferry": "yes", "name": "K\u0131nal\u0131ada", "public_transport": "station"}}, {"type": "node", "id": 4040637478, "lat": 40.9105852, "lon": 29.0553542}, {"type": "node", "id": 4040637479, "lat": 40.9104709, "lon": 29.0553864}, {"type": "node", "id": 4040637480, "lat": 40.9104952, "lon": 29.0555409}, {"type": "node", "id": 4040637481, "lat": 40.9104668, "lon": 29.055549}, {"type": "node", "id": 4040637483, "lat": 40.9107284, "lon": 29.0559355}, {"type": "node", "id": 4040637484, "lat": 40.9106579, "lon": 29.055498}, {"type": "node", "id": 4040637485, "lat": 40.9106105, "lon": 29.0555113}, {"type": "node", "id": 4040637486, "lat": 40.910456, "lon": 29.0555646}, {"type": "node", "id": 4040638090, "lat": 40.9099393, "lon": 29.0559728}, {"type": "node", "id": 4040638091, "lat": 40.9102553, "lon": 29.0557562}, {"type": "node", "id": 4040638092, "lat": 40.9102429, "lon": 29.0555903}, {"type": "node", "id": 4040638093, "lat": 40.9091724, "lon": 29.0552978}, {"type": "node", "id": 4040638094, "lat": 40.9091129, "lon": 29.0552984}, {"type": "node", "id": 4040638095, "lat": 40.9091143, "lon": 29.0555275}, {"type": "node", "id": 4040638096, "lat": 40.9091454, "lon": 29.0555272, "tags": {"amenity": "ferry_terminal", "ferry": "yes", "name": "K\u0131nal\u0131ada", "public_transport": "station"}}, {"type": "node", "id": 5672864363, "lat": 40.9100519, "lon": 29.0559515, "tags": {"amenity": "ferry_terminal", "ferry": "yes", "public_transport": "station"}}, {"type": "node", "id": 6058413863, "lat": 40.909143, "lon": 29.0552981}, {"type": "node", "id": 6259789063, "lat": 40.9105304, "lon": 29.0553697}, {"type": "node", "id": 6509266801, "lat": 40.9105378, "lon": 29.0559893}, {"type": "node", "id": 9201906001, "lat": 40.9102181, "lon": 29.0557815}, {"type": "node", "id": 9232877371, "lat": 40.9050628, "lon": 29.0549688, "tags": {"bus": "yes", "highway": "bus_stop", "name": "G\u00fcnseri Sokak", "operator": "\u0130ETT", "public_transport": "platform"}}, {"type": "node", "id": 9232877372, "lat": 40.9072585, "lon": 29.0523073, "tags": {"bus": "yes", "highway": "bus_stop", "name": "Serap Sokak", "operator": "\u0130ETT", "public_transport": "platform"}}, {"type": "node", "id": 9232877373, "lat": 40.9066612, "lon": 29.0529169, "tags": {"bus": "yes", "highway": "bus_stop", "name": "Serap Sokak", "operator": "\u0130ETT", "public_transport": "platform"}}, {"type": "node", "id": 9232877375, "lat": 40.9090343, "lon": 29.053191, "tags": {"bus": "yes", "highway": "bus_stop", "name": "Kilise", "operator": "\u0130ETT", "public_transport": "platform"}}, {"type": "node", "id": 9232877376, "lat": 40.9099273, "lon": 29.053762, "tags": {"bus": "yes", "highway": "bus_stop", "name": "Tekinay 1", "operator": "\u0130ETT", "public_transport": "platform"}}, {"type": "node", "id": 9232877377, "lat": 40.9106732, "lon": 29.0525991, "tags": {"bus": "yes", "highway": "bus_stop", "name": "Bah\u00e7eli Sokak", "operator": "\u0130ETT", "public_transport": "platform"}}, {"type": "node", "id": 9232877378, "lat": 40.9124839, "lon": 29.0504886, "tags": {"bus": "yes", "highway": "bus_stop", "name": "Nar\u00e7i\u00e7e\u011fi Sokak", "operator": "\u0130ETT", "public_transport": "platform"}}, {"type": "node", "id": 9232877379, "lat": 40.9132072, "lon": 29.0473689, "tags": {"bus": "yes", "highway": "bus_stop", "name": "Fincanc\u0131 Sokak", "operator": "\u0130ETT", "public_transport": "platform"}}, {"type": "node", "id": 9232877380, "lat": 40.9135577, "lon": 29.0467046, "tags": {"bus": "yes", "highway": "bus_stop", "name": "Faz\u0131l Ahmet Ayta\u00e7 Sokak", "operator": "\u0130ETT", "public_transport": "platform"}}, {"type": "node", "id": 9232877383, "lat": 40.9135919, "lon": 29.0497716, "tags": {"bus": "yes", "highway": "bus_stop", "name": "K\u0131nal\u0131ada Su Sporlar\u0131", "operator": "\u0130ETT", "public_transport": "platform"}}, {"type": "node", "id": 9232877384, "lat": 40.912734, "lon": 29.0524492, "tags": {"bus": "yes", "highway": "bus_stop", "name": "Sak\u0131zl\u0131 Sokak", "operator": "\u0130ETT", "public_transport": "platform"}}, {"type": "node", "id": 9232877385, "lat": 40.9094453, "lon": 29.0551621, "tags": {"bus": "yes", "highway": "bus_stop", "name": "K\u0131nal\u0131ada \u0130skele", "operator": "\u0130ETT", "public_transport": "platform"}}, {"type": "node", "id": 9248177227, "lat": 40.9051738, "lon": 29.0466006, "tags": {"bus": "yes", "highway": "bus_stop", "name": "Plajlar B\u00f6lgesi", "operator": "\u0130ETT", "public_transport": "platform"}}, {"type": "node", "id": 9248177228, "lat": 40.9036059, "lon": 29.0527269, "tags": {"bus": "yes", "highway": "bus_stop", "name": "Garaj", "network": "\u0130ETT", "network:wikidata": "Q343136", "operator": "\u0130ETT", "public_transport": "platform"}}, {"type": "node", "id": 9248177229, "lat": 40.9127366, "lon": 29.0514329, "tags": {"bus": "yes", "highway": "bus_stop", "name": "Tekinay 2", "operator": "\u0130ETT", "public_transport": "platform"}}, {"type": "node", "id": 9248177230, "lat": 40.9110582, "lon": 29.0533247, "tags": {"bus": "yes", "highway": "bus_stop", "name": "Tekinay 1", "network": "\u0130ETT", "network:wikidata": "Q343136", "operator": "\u0130ETT", "public_transport": "platform"}}, {"type": "node", "id": 10289625977, "lat": 40.9091738, "lon": 29.0555269}, {"type": "node", "id": 10289625978, "lat": 40.9100375, "lon": 29.0559044}, {"type": "node", "id": 10289625980, "lat": 40.9104966, "lon": 29.055734}, {"type": "way", "id": 401651883, "nodes": [4040637478, 6259789063, 4040637479, 4040637480, 4040637481, 10289625980, 6509266801, 4040637483, 4040637484, 4040637485, 4040637478], "tags": {"amenity": "ferry_terminal", "building": "yes", "ferry": "yes", "name": "K\u0131nal\u0131ada Vapur \u0130skelesi", "operator": "\u015eehir Hatlar\u0131", "public_transport": "station"}}, {"type": "way", "id": 401651886, "nodes": [4040637486, 972066825, 972066822, 972636962, 5672864363, 972066820, 4040638090, 10289625978, 9201906001, 4040638091, 4040638092, 4040637486], "tags": {"amenity": "ferry_terminal", "ferry": "yes", "name": "K\u0131nal\u0131ada Deniz Otob\u00fcs\u00fc \u0130skelesi", "operator": "\u0130DO", "public_transport": "station"}}, {"type": "way", "id": 401651888, "nodes": [4040638093, 6058413863, 4040638094, 4040638095, 4040638096, 10289625977, 4040638093], "tags": {"amenity": "ferry_terminal", "building": "yes", "ferry": "yes", "name": "Mavimarmara.net", "operator": "Mavi Marmara", "public_transport": "station"}}]}