{"version": 0.6, "generator": "Overpass API 0.7.62.5 1bd436f1", "osm3s": {"timestamp_osm_base": "2025-03-28T18:35:32Z", "copyright": "The data included in this document is from www.openstreetmap.org. The data is made available under ODbL."}, "elements": [{"type": "node", "id": 4575871212, "lat": 40.9708142, "lon": 29.1397996, "tags": {"bench": "yes", "bus": "yes", "highway": "bus_stop", "name": "F\u0131nd\u0131kl\u0131 Mahallesi Dura\u011f\u0131", "network": "\u0130ETT", "network:wikidata": "Q343136", "operator": "\u0130ETT", "public_transport": "platform", "public_transport:version": "2", "ref": "226771", "shelter": "yes", "website": "https://iett.istanbul/StationDetail?dkod=226771"}}, {"type": "node", "id": 4822498024, "lat": 40.9814514, "lon": 29.1449628, "tags": {"bus": "yes", "highway": "bus_stop", "name": "Uslu Caddesi", "name:en": "Uslu Street", "name:tr": "Uslu Caddesi", "network": "\u0130ETT", "network:wikidata": "Q343136", "operator": "\u0130ETT", "public_transport": "platform", "ref": "226641", "website": "https://iett.istanbul/StationDetail?dkod=226641"}}, {"type": "node", "id": 6881024491, "lat": 40.9706742, "lon": 29.1455529, "tags": {"bus": "yes", "highway": "bus_stop", "name": "F\u0131rat Sokak", "network": "\u0130ETT", "network:wikidata": "Q343136", "operator": "\u0130ETT", "public_transport": "platform", "public_transport:version": "2", "ref": "228241", "website": "https://iett.istanbul/StationDetail?dkod=228241"}}, {"type": "node", "id": 6881024492, "lat": 40.9722863, "lon": 29.1448343, "tags": {"bus": "yes", "highway": "bus_stop", "name": "Evren Caddesi", "network": "\u0130ETT", "network:wikidata": "Q343136", "operator": "\u0130ETT", "public_transport": "platform", "public_transport:version": "2", "ref": "228871", "website": "https://iett.istanbul/StationDetail?dkod=228871"}}, {"type": "node", "id": 6881107918, "lat": 40.9713914, "lon": 29.1290103, "tags": {"bus": "yes", "highway": "bus_stop", "name": "\u0130ETT Duraklar\u0131", "network": "\u0130ETT", "network:wikidata": "Q343136", "operator": "\u0130ETT", "public_transport": "platform", "public_transport:version": "2", "ref": "224321", "website": "https://iett.istanbul/StationDetail?dkod=224321"}}, {"type": "node", "id": 6881107920, "lat": 40.9714111, "lon": 29.1353948, "tags": {"bus": "yes", "highway": "bus_stop", "name": "Ataman Caddesi", "network": "\u0130ETT", "network:wikidata": "Q343136", "operator": "\u0130ETT", "public_transport": "platform", "public_transport:version": "2", "ref": "226762", "website": "https://iett.istanbul/StationDetail?dkod=226762"}}, {"type": "node", "id": 6892619801, "lat": 40.9730363, "lon": 29.1478738, "tags": {"bus": "yes", "highway": "bus_stop", "name": "Yeditepe \u00dcniversitesi", "public_transport": "platform"}}, {"type": "node", "id": 6892619802, "lat": 40.9733046, "lon": 29.1454598, "tags": {"bus": "yes", "highway": "bus_stop", "name": "\u00dcniversite Yolu", "public_transport": "platform"}}, {"type": "node", "id": 7705094348, "lat": 40.9842689, "lon": 29.1375984}, {"type": "node", "id": 7705094349, "lat": 40.9849269, "lon": 29.1383605}, {"type": "node", "id": 7705094350, "lat": 40.9849969, "lon": 29.1382541}, {"type": "node", "id": 7705094351, "lat": 40.9843382, "lon": 29.1374931}, {"type": "node", "id": 7705094353, "lat": 40.9844187, "lon": 29.1373538}, {"type": "node", "id": 7705094354, "lat": 40.9850697, "lon": 29.1381059}, {"type": "node", "id": 7705094355, "lat": 40.9851368, "lon": 29.1379984}, {"type": "node", "id": 7840324718, "lat": 40.9827577, "lon": 29.1340115, "tags": {"bus": "yes", "highway": "bus_stop", "name": "G\u00fcmr\u00fck B\u00f6lge M\u00fcd\u00fcrl\u00fc\u011f\u00fc", "network": "\u0130ETT", "network:wikidata": "Q343136", "operator": "\u0130ETT", "public_transport": "platform", "public_transport:version": "2", "ref": "226441", "website": "https://iett.istanbul/StationDetail?dkod=226441"}}, {"type": "node", "id": 7840324719, "lat": 40.9822117, "lon": 29.1342709, "tags": {"bus": "yes", "highway": "bus_stop", "name": "G\u00fcmr\u00fck B\u00f6lge M\u00fcd\u00fcrl\u00fc\u011f\u00fc", "network": "\u0130ETT", "network:wikidata": "Q343136", "operator": "\u0130ETT", "public_transport": "platform", "ref": "226442", "website": "https://iett.istanbul/StationDetail?dkod=226442"}}, {"type": "node", "id": 7840324720, "lat": 40.9814679, "lon": 29.1323983, "tags": {"bus": "yes", "highway": "bus_stop", "name": "Kay\u0131\u015fda\u011f\u0131-Dudullu Caddesi", "network": "\u0130ETT", "network:wikidata": "Q343136", "operator": "\u0130ETT", "public_transport": "platform", "public_transport:version": "2", "ref": "213851", "website": "https://iett.istanbul/StationDetail?dkod=213851"}}, {"type": "node", "id": 7875173755, "lat": 40.9790225, "lon": 29.1295604, "tags": {"bus": "yes", "highway": "bus_stop", "name": "\u0130ETT Lojmanlar\u0131", "network": "\u0130ETT", "network:wikidata": "Q343136", "operator": "\u0130ETT", "public_transport": "platform", "public_transport:version": "2", "ref": "226582", "website": "https://iett.istanbul/StationDetail?dkod=226582"}}, {"type": "node", "id": 7875173756, "lat": 40.9791184, "lon": 29.1323161, "tags": {"bus": "yes", "highway": "bus_stop", "name": "\u0130ETT Garaj\u0131", "network": "\u0130ETT", "network:wikidata": "Q343136", "operator": "\u0130ETT", "public_transport": "platform", "public_transport:version": "2", "ref": "226591", "website": "https://iett.istanbul/StationDetail?dkod=226591"}}, {"type": "node", "id": 7875173757, "lat": 40.978737, "lon": 29.133584, "tags": {"bus": "yes", "highway": "bus_stop", "name": "\u0130ETT Garaj\u0131;\u0130ett Garaj\u0131", "network": "\u0130ETT", "network:wikidata": "Q343136", "operator": "\u0130ETT", "public_transport": "platform", "public_transport:version": "2", "ref": "226591;226592", "website": "https://iett.istanbul/StationDetail?dkod=226591;https://iett.istanbul/StationDetail?dkod=226592"}}, {"type": "node", "id": 7875173758, "lat": 40.9788114, "lon": 29.1355803, "tags": {"bus": "yes", "highway": "bus_stop", "name": "G\u00fcmr\u00fck \u00dcstkap\u0131", "network": "\u0130ETT", "network:wikidata": "Q343136", "operator": "\u0130ETT", "public_transport": "platform", "public_transport:version": "2", "ref": "211431", "website": "https://iett.istanbul/StationDetail?dkod=211431"}}, {"type": "node", "id": 7875173759, "lat": 40.9785486, "lon": 29.1364465, "tags": {"bus": "yes", "highway": "bus_stop", "name": "G\u00fcmr\u00fck \u00dcstkap\u0131", "network": "\u0130ETT", "network:wikidata": "Q343136", "operator": "\u0130ETT", "public_transport": "platform", "public_transport:version": "2", "ref": "211432", "website": "https://iett.istanbul/StationDetail?dkod=211432"}}, {"type": "node", "id": 7875173760, "lat": 40.9787502, "lon": 29.1382178, "tags": {"bus": "yes", "highway": "bus_stop", "name": "Kay\u0131\u015fda\u011f\u0131 \u0130lkokulu", "network": "\u0130ETT", "network:wikidata": "Q343136", "operator": "\u0130ETT", "public_transport": "platform", "public_transport:version": "2", "ref": "226601", "website": "https://iett.istanbul/StationDetail?dkod=226601"}}, {"type": "node", "id": 7875173761, "lat": 40.9785171, "lon": 29.1380719, "tags": {"bus": "yes", "highway": "bus_stop", "name": "Kay\u0131\u015fda\u011f\u0131 \u0130lkokulu", "network": "\u0130ETT", "network:wikidata": "Q343136", "operator": "\u0130ETT", "public_transport": "platform", "public_transport:version": "2", "ref": "226602", "website": "https://iett.istanbul/StationDetail?dkod=226602"}}, {"type": "node", "id": 7875173762, "lat": 40.9785565, "lon": 29.1409043, "tags": {"bus": "yes", "highway": "bus_stop", "name": "Kay\u0131\u015fda\u011f\u0131 Yolu", "network": "\u0130ETT", "network:wikidata": "Q343136", "operator": "\u0130ETT", "public_transport": "platform", "public_transport:version": "2", "ref": "226611", "website": "https://iett.istanbul/StationDetail?dkod=226611"}}, {"type": "node", "id": 7875173763, "lat": 40.9782479, "lon": 29.140622, "tags": {"bus": "yes", "highway": "bus_stop", "name": "Kay\u0131\u015fda\u011f\u0131 Yolu", "network": "\u0130ETT", "network:wikidata": "Q343136", "operator": "\u0130ETT", "public_transport": "platform"}}, {"type": "node", "id": 7875173766, "lat": 40.9774697, "lon": 29.1477728, "tags": {"bus": "yes", "highway": "bus_stop", "name": "Dar\u00fclaceze M\u00fcd\u00fcrl\u00fc\u011f\u00fc", "network": "\u0130ETT", "network:wikidata": "Q343136", "operator": "\u0130ETT", "public_transport": "platform", "public_transport:version": "2", "ref": "208032", "website": "https://iett.istanbul/StationDetail?dkod=208032"}}, {"type": "node", "id": 7875173767, "lat": 40.9772039, "lon": 29.1476242, "tags": {"bus": "yes", "highway": "bus_stop", "name": "Dar\u00fclaceze M\u00fcd\u00fcrl\u00fc\u011f\u00fc", "network": "\u0130ETT", "network:wikidata": "Q343136", "operator": "\u0130ETT", "public_transport": "platform", "public_transport:version": "2", "ref": "208031", "website": "https://iett.istanbul/StationDetail?dkod=208031"}}, {"type": "node", "id": 7875173772, "lat": 40.9803674, "lon": 29.1425164, "tags": {"bus": "yes", "highway": "bus_stop", "name": "Erdem Sitesi", "network": "\u0130ETT", "network:wikidata": "Q343136", "operator": "\u0130ETT", "public_transport": "platform", "public_transport:version": "2", "ref": "226622", "website": "https://iett.istanbul/StationDetail?dkod=226622"}}, {"type": "node", "id": 7875173773, "lat": 40.9804504, "lon": 29.1423796, "tags": {"bus": "yes", "highway": "bus_stop", "name": "Erdem Sitesi", "network": "\u0130ETT", "network:wikidata": "Q343136", "operator": "\u0130ETT", "public_transport": "platform", "public_transport:version": "2", "ref": "226621", "website": "https://iett.istanbul/StationDetail?dkod=226621"}}, {"type": "node", "id": 7875173774, "lat": 40.9841539, "lon": 29.1432272, "tags": {"bus": "yes", "highway": "bus_stop", "name": "Akyaz\u0131 Caddesi", "network": "\u0130ETT", "network:wikidata": "Q343136", "operator": "\u0130ETT", "public_transport": "platform", "public_transport:version": "2", "ref": "226632", "website": "https://iett.istanbul/StationDetail?dkod=226632"}}, {"type": "node", "id": 7875173775, "lat": 40.9839109, "lon": 29.1433264, "tags": {"bus": "yes", "highway": "bus_stop", "name": "Akyaz\u0131 Caddesi", "network": "\u0130ETT", "network:wikidata": "Q343136", "operator": "\u0130ETT", "public_transport": "platform", "public_transport:version": "2", "ref": "226631", "website": "https://iett.istanbul/StationDetail?dkod=226631"}}, {"type": "node", "id": 7875173776, "lat": 40.9812473, "lon": 29.1479289, "tags": {"bus": "yes", "highway": "bus_stop", "name": "Kay\u0131\u015fda\u011f\u0131 Mahallesi Muhtarl\u0131\u011f\u0131", "network": "\u0130ETT", "network:wikidata": "Q343136", "operator": "\u0130ETT", "public_transport": "platform"}}, {"type": "node", "id": 7875173777, "lat": 40.9810629, "lon": 29.1478793, "tags": {"bus": "yes", "highway": "bus_stop", "name": "Kay\u0131\u015fda\u011f\u0131 Mahallesi Muhtarl\u0131\u011f\u0131", "network": "\u0130ETT", "network:wikidata": "Q343136", "operator": "\u0130ETT", "public_transport": "platform"}}, {"type": "node", "id": 8567298985, "lat": 40.9845673, "lon": 29.1373347}, {"type": "node", "id": 8567298986, "lat": 40.9845579, "lon": 29.1379321}, {"type": "node", "id": 8567298987, "lat": 40.9846108, "lon": 29.1379951}, {"type": "node", "id": 8567298988, "lat": 40.9845789, "lon": 29.1380436}, {"type": "node", "id": 8567298989, "lat": 40.9845252, "lon": 29.1379817}, {"type": "node", "id": 8567298990, "lat": 40.9848349, "lon": 29.1376498}, {"type": "node", "id": 8567298991, "lat": 40.9847856, "lon": 29.1375869}, {"type": "node", "id": 8567298992, "lat": 40.9848105, "lon": 29.1375492}, {"type": "node", "id": 8567298993, "lat": 40.984862, "lon": 29.1376086}, {"type": "node", "id": 8567298994, "lat": 40.984488, "lon": 29.137243}, {"type": "node", "id": 8567298996, "lat": 40.9850397, "lon": 29.1378863}, {"type": "node", "id": 8567298997, "lat": 40.9850773, "lon": 29.1379298}, {"type": "node", "id": 11476748754, "lat": 40.9757287, "lon": 29.1457777, "tags": {"highway": "bus_stop", "name": "D\u00fczenli Sokak", "network": "\u0130ETT", "network:wikidata": "Q343136", "operator": "\u0130ETT", "public_transport": "platform", "public_transport:version": "2", "ref": "228741", "website": "https://iett.istanbul/StationDetail?dkod=228741"}}, {"type": "node", "id": 11476748755, "lat": 40.9753692, "lon": 29.1434254, "tags": {"highway": "bus_stop", "name": "Uhud Camii", "network": "\u0130ETT", "network:wikidata": "Q343136", "operator": "\u0130ETT", "public_transport": "platform", "public_transport:version": "2", "ref": "213802", "website": "https://iett.istanbul/StationDetail?dkod=213802"}}, {"type": "node", "id": 11476748756, "lat": 40.9723751, "lon": 29.145079, "tags": {"bus": "yes", "highway": "bus_stop", "name": "Evren Caddesi", "network": "\u0130ETT", "network:wikidata": "Q343136", "operator": "\u0130ETT", "public_transport": "platform", "public_transport:version": "2", "ref": "228872", "website": "https://iett.istanbul/StationDetail?dkod=228872"}}, {"type": "node", "id": 11476748757, "lat": 40.9705677, "lon": 29.14583, "tags": {"bus": "yes", "highway": "bus_stop", "name": "F\u0131rat Sokak", "network": "\u0130ETT", "network:wikidata": "Q343136", "operator": "\u0130ETT", "public_transport": "platform", "public_transport:version": "2", "ref": "228242", "website": "https://iett.istanbul/StationDetail?dkod=228242"}}, {"type": "node", "id": 11476748760, "lat": 40.9707185, "lon": 29.1397363, "tags": {"highway": "bus_stop", "name": "F\u0131nd\u0131kl\u0131 Mahallesi", "network": "\u0130ETT", "network:wikidata": "Q343136", "operator": "\u0130ETT", "public_transport": "platform", "public_transport:version": "2", "ref": "226772", "website": "https://iett.istanbul/StationDetail?dkod=226772"}}, {"type": "node", "id": 11476748761, "lat": 40.9712846, "lon": 29.1379832, "tags": {"highway": "bus_stop", "name": "Sude Yaren Uzun\u00e7avdar", "network": "\u0130ETT", "network:wikidata": "Q343136", "operator": "\u0130ETT", "public_transport": "platform", "public_transport:version": "2", "ref": "210492", "website": "https://iett.istanbul/StationDetail?dkod=210492"}}, {"type": "node", "id": 11476748762, "lat": 40.9713033, "lon": 29.1359112, "tags": {"bus": "yes", "highway": "bus_stop", "name": "Ataman Caddesi", "network": "\u0130ETT", "network:wikidata": "Q343136", "operator": "\u0130ETT", "public_transport": "platform", "public_transport:version": "2", "ref": "226761", "website": "https://iett.istanbul/StationDetail?dkod=226761"}}, {"type": "node", "id": 11476748763, "lat": 40.971319, "lon": 29.1320501, "tags": {"highway": "bus_stop", "name": "Gazi Mustafa Kemal Caddesi", "network": "\u0130ETT", "network:wikidata": "Q343136", "operator": "\u0130ETT", "public_transport": "platform", "public_transport:version": "2", "ref": "226751", "website": "https://iett.istanbul/StationDetail?dkod=226751"}}, {"type": "node", "id": 11476748764, "lat": 40.9712896, "lon": 29.1291748, "tags": {"bus": "yes", "highway": "bus_stop", "name": "\u0130ETT Bloklar\u0131", "network": "\u0130ETT", "network:wikidata": "Q343136", "operator": "\u0130ETT", "public_transport": "platform", "public_transport:version": "2", "ref": "224322", "website": "https://iett.istanbul/StationDetail?dkod=224322"}}, {"type": "node", "id": 11478848987, "lat": 40.9714378, "lon": 29.132286, "tags": {"highway": "bus_stop", "name": "Gazi Mustafa Kemal Caddesi", "network": "\u0130ETT", "network:wikidata": "Q343136", "operator": "\u0130ETT", "public_transport": "platform", "public_transport:version": "2", "ref": "226752", "website": "https://iett.istanbul/StationDetail?dkod=226752"}}, {"type": "node", "id": 11478848988, "lat": 40.9713966, "lon": 29.1378479, "tags": {"highway": "bus_stop", "name": "Sude Yaren Uzun\u00e7avdar", "network": "\u0130ETT", "network:wikidata": "Q343136", "operator": "\u0130ETT", "public_transport": "platform", "public_transport:version": "2", "ref": "210491", "website": "https://iett.istanbul/StationDetail?dkod=210491"}}, {"type": "node", "id": 11478848989, "lat": 40.9753839, "lon": 29.1432494, "tags": {"highway": "bus_stop", "name": "Uhud Camii", "network": "\u0130ETT", "network:wikidata": "Q343136", "operator": "\u0130ETT", "public_transport": "platform", "public_transport:version": "2", "ref": "213801", "website": "https://iett.istanbul/StationDetail?dkod=213801"}}, {"type": "node", "id": 11478848990, "lat": 40.9767985, "lon": 29.1448542, "tags": {"bus": "yes", "highway": "bus_stop", "name": "Nar \u00c7i\u00e7e\u011fi Sokak", "network": "\u0130ETT", "network:wikidata": "Q343136", "operator": "\u0130ETT", "public_transport": "platform", "public_transport:version": "2", "ref": "205653", "website": "https://iett.istanbul/StationDetail?dkod=205653"}}, {"type": "node", "id": 11483024352, "lat": 40.9792521, "lon": 29.1300244, "tags": {"bus": "yes", "highway": "bus_stop", "name": "\u0130ETT Lojmanlar\u0131", "network": "\u0130ETT", "network:wikidata": "Q343136", "operator": "\u0130ETT", "public_transport": "platform", "public_transport:version": "2", "ref": "226581", "website": "https://iett.istanbul/StationDetail?dkod=226581"}}, {"type": "node", "id": 11664767031, "lat": 40.978404, "lon": 29.139902, "tags": {"bus": "yes", "highway": "bus_stop", "name": "\u0130smek", "network": "\u0130ETT", "network:wikidata": "Q343136", "operator": "\u0130ETT", "public_transport": "platform", "public_transport:version": "2", "ref": "226612", "website": "https://iett.istanbul/StationDetail?dkod=226612"}}, {"type": "node", "id": 11664767034, "lat": 40.977975, "lon": 29.145062, "tags": {"bus": "yes", "highway": "bus_stop", "name": "Kay\u0131\u015fda\u011f\u0131 Yolu", "network": "\u0130ETT", "network:wikidata": "Q343136", "operator": "\u0130ETT", "public_transport": "platform", "public_transport:version": "2", "ref": "208062", "website": "https://iett.istanbul/StationDetail?dkod=208062"}}, {"type": "node", "id": 11666106858, "lat": 40.980436, "lon": 29.130769, "tags": {"bus": "yes", "highway": "bus_stop", "name": "Kay\u0131\u015fda\u011f\u0131 Dudullu Caddesi", "network": "\u0130ETT", "network:wikidata": "Q343136", "operator": "\u0130ETT", "public_transport": "platform", "public_transport:version": "2", "ref": "213852", "website": "https://iett.istanbul/StationDetail?dkod=213852"}}, {"type": "node", "id": 11670206853, "lat": 40.973248, "lon": 29.146607, "tags": {"bus": "yes", "highway": "bus_stop", "name": "Yeditepe \u00dcniversitesi Alt Kap\u0131", "network": "\u0130ETT", "network:wikidata": "Q343136", "operator": "\u0130ETT", "public_transport": "platform", "public_transport:version": "2", "ref": "402051", "website": "https://iett.istanbul/StationDetail?dkod=402051"}}, {"type": "node", "id": 11670206855, "lat": 40.973182, "lon": 29.145776, "tags": {"bus": "yes", "highway": "bus_stop", "name": "\u00dcniversite Yolu", "network": "\u0130ETT", "network:wikidata": "Q343136", "operator": "\u0130ETT", "public_transport": "platform", "public_transport:version": "2", "ref": "211502", "website": "https://iett.istanbul/StationDetail?dkod=211502"}}, {"type": "node", "id": 11670206860, "lat": 40.975937, "lon": 29.142783, "tags": {"bus": "yes", "highway": "bus_stop", "name": "Nar \u00c7i\u00e7e\u011fi", "network": "\u0130ETT", "network:wikidata": "Q343136", "operator": "\u0130ETT", "public_transport": "platform", "public_transport:version": "2", "ref": "205661", "website": "https://iett.istanbul/StationDetail?dkod=205661"}}, {"type": "node", "id": 11670206861, "lat": 40.976607, "lon": 29.131619, "tags": {"bus": "yes", "highway": "bus_stop", "name": "19 May\u0131s Caddesi", "network": "\u0130ETT", "network:wikidata": "Q343136", "operator": "\u0130ETT", "public_transport": "platform", "public_transport:version": "2", "ref": "205691", "website": "https://iett.istanbul/StationDetail?dkod=205691"}}, {"type": "node", "id": 11670206864, "lat": 40.975975, "lon": 29.139385, "tags": {"bus": "yes", "highway": "bus_stop", "name": "\u0130n\u00f6n\u00fc Mahallesi", "network": "\u0130ETT", "network:wikidata": "Q343136", "operator": "\u0130ETT", "public_transport": "platform", "public_transport:version": "2", "ref": "205672", "website": "https://iett.istanbul/StationDetail?dkod=205672"}}, {"type": "node", "id": 11670206871, "lat": 40.976503, "lon": 29.131726, "tags": {"bus": "yes", "highway": "bus_stop", "name": "19 May\u0131s Caddesi", "network": "\u0130ETT", "network:wikidata": "Q343136", "operator": "\u0130ETT", "public_transport": "platform", "public_transport:version": "2", "ref": "205692", "website": "https://iett.istanbul/StationDetail?dkod=205692"}}, {"type": "node", "id": 11670206872, "lat": 40.976097, "lon": 29.139143, "tags": {"bus": "yes", "highway": "bus_stop", "name": "\u0130n\u00f6n\u00fc Mahallesi", "network": "\u0130ETT", "network:wikidata": "Q343136", "operator": "\u0130ETT", "public_transport": "platform", "public_transport:version": "2", "ref": "205671", "website": "https://iett.istanbul/StationDetail?dkod=205671"}}, {"type": "node", "id": 11670206878, "lat": 40.975855, "lon": 29.142578, "tags": {"bus": "yes", "highway": "bus_stop", "name": "Nar\u00e7i\u00e7e\u011fi", "network": "\u0130ETT", "network:wikidata": "Q343136", "operator": "\u0130ETT", "public_transport": "platform", "public_transport:version": "2", "ref": "205662", "website": "https://iett.istanbul/StationDetail?dkod=205662"}}, {"type": "node", "id": 11670206880, "lat": 40.981259, "lon": 29.147886, "tags": {"bus": "yes", "highway": "bus_stop", "name": "Kay\u0131\u015fda\u011f\u0131 Mahallesi Muhtarl\u0131\u011f\u0131", "network": "\u0130ETT", "network:wikidata": "Q343136", "operator": "\u0130ETT", "public_transport": "platform", "public_transport:version": "2", "ref": "210031", "website": "https://iett.istanbul/StationDetail?dkod=210031"}}, {"type": "node", "id": 11670206881, "lat": 40.976254, "lon": 29.134536, "tags": {"bus": "yes", "highway": "bus_stop", "name": "\u015eehit \u00d6\u011fretmen Mehmet Fidan \u0130lkokulu", "network": "\u0130ETT", "network:wikidata": "Q343136", "operator": "\u0130ETT", "public_transport": "platform", "public_transport:version": "2", "ref": "205651", "website": "https://iett.istanbul/StationDetail?dkod=205651"}}, {"type": "node", "id": 11670206884, "lat": 40.976146, "lon": 29.13452, "tags": {"bus": "yes", "highway": "bus_stop", "name": "\u015eehit \u00d6\u011fretmen Mehmet Fidan \u0130lkokulu", "network": "\u0130ETT", "network:wikidata": "Q343136", "operator": "\u0130ETT", "public_transport": "platform", "public_transport:version": "2", "ref": "205652", "website": "https://iett.istanbul/StationDetail?dkod=205652"}}, {"type": "node", "id": 11670206885, "lat": 40.9811, "lon": 29.147756, "tags": {"bus": "yes", "highway": "bus_stop", "name": "Kay\u0131\u015fda\u011f\u0131 Mahallesi Muhtarl\u0131\u011f\u0131", "network": "\u0130ETT", "network:wikidata": "Q343136", "operator": "\u0130ETT", "public_transport": "platform", "public_transport:version": "2", "ref": "210032", "website": "https://iett.istanbul/StationDetail?dkod=210032"}}, {"type": "node", "id": 12011718904, "lat": 40.9778571, "lon": 29.1441401, "tags": {"bus": "yes", "highway": "bus_stop", "name": "Kay\u0131\u015fda\u011f\u0131 Yolu", "network": "\u0130ETT", "network:wikidata": "Q343136", "public_transport": "platform", "ref": "208061", "website": "https://iett.istanbul/StationDetail?dkod=208061"}}, {"type": "way", "id": 825181954, "nodes": [7705094348, 8567298986, 8567298989, 8567298988, 8567298987, 7705094349, 7705094350, 7705094351, 7705094348], "tags": {"area": "yes", "landuse": "railway", "layer": "-3", "public_transport": "platform", "railway": "platform", "subway": "yes", "tunnel": "yes"}}, {"type": "way", "id": 825181955, "nodes": [8567298994, 7705094353, 7705094354, 7705094355, 8567298997, 8567298996, 8567298990, 8567298993, 8567298992, 8567298991, 8567298985, 8567298994], "tags": {"area": "yes", "landuse": "railway", "layer": "-3", "public_transport": "platform", "railway": "platform", "subway": "yes", "tunnel": "yes"}}]}