{"version": 0.6, "generator": "Overpass API 0.7.62.5 1bd436f1", "osm3s": {"timestamp_osm_base": "2025-03-28T19:24:00Z", "copyright": "The data included in this document is from www.openstreetmap.org. The data is made available under ODbL."}, "elements": [{"type": "node", "id": 27651261, "lat": 40.8766862, "lon": 29.1015353, "tags": {"source": "PGS"}}, {"type": "node", "id": 27651272, "lat": 40.8767955, "lon": 29.1014503, "tags": {"source": "PGS"}}, {"type": "node", "id": 27651644, "lat": 40.877085, "lon": 29.1020819, "tags": {"source": "PGS"}}, {"type": "node", "id": 27651814, "lat": 40.8770354, "lon": 29.1021289, "tags": {"source": "PGS"}}, {"type": "node", "id": 2474547881, "lat": 40.8771358, "lon": 29.1020337, "tags": {"source": "PGS"}}, {"type": "node", "id": 3281338268, "lat": 40.8787861, "lon": 29.1004747}, {"type": "node", "id": 4040610239, "lat": 40.8767697, "lon": 29.1014061}, {"type": "node", "id": 4040610240, "lat": 40.8766693, "lon": 29.1015066}, {"type": "node", "id": 4040610244, "lat": 40.877923, "lon": 29.1006496}, {"type": "node", "id": 4040610245, "lat": 40.8776224, "lon": 29.1008309}, {"type": "node", "id": 4040610246, "lat": 40.877697, "lon": 29.1010472}, {"type": "node", "id": 4040610247, "lat": 40.8778175, "lon": 29.1009745}, {"type": "node", "id": 4040610249, "lat": 40.8780311, "lon": 29.1013931}, {"type": "node", "id": 4040610250, "lat": 40.8778756, "lon": 29.1009423}, {"type": "node", "id": 4040610251, "lat": 40.8779984, "lon": 29.1008683}, {"type": "node", "id": 4053639164, "lat": 40.8787364, "lon": 29.1002411}, {"type": "node", "id": 4053639165, "lat": 40.8788036, "lon": 29.1004656}, {"type": "node", "id": 4053639167, "lat": 40.878699, "lon": 29.1002606}, {"type": "node", "id": 5470035018, "lat": 40.8780088, "lon": 29.100622}, {"type": "node", "id": 5470035019, "lat": 40.8780232, "lon": 29.1006604, "tags": {"amenity": "ferry_terminal", "ferry": "yes", "name": "Heybeliada", "public_transport": "station"}}, {"type": "node", "id": 5470035020, "lat": 40.8779652, "lon": 29.1006986}, {"type": "node", "id": 5470035121, "lat": 40.8779507, "lon": 29.1006602}, {"type": "node", "id": 9232962504, "lat": 40.8731039, "lon": 29.0987908, "tags": {"bus": "yes", "highway": "bus_stop", "name": "\u015eafak Orduevi", "operator": "\u0130ETT", "public_transport": "platform"}}, {"type": "node", "id": 9232962505, "lat": 40.8752151, "lon": 29.0965981, "tags": {"bus": "yes", "highway": "bus_stop", "name": "Bahariye Bay\u0131r\u0131", "operator": "\u0130ETT", "public_transport": "platform"}}, {"type": "node", "id": 9232962506, "lat": 40.8761826, "lon": 29.0931003, "tags": {"bus": "yes", "highway": "bus_stop", "name": "\u015eehit Dursun Keser Sokak", "operator": "\u0130ETT", "public_transport": "platform"}}, {"type": "node", "id": 9232962507, "lat": 40.8764159, "lon": 29.0945164, "tags": {"bus": "yes", "highway": "bus_stop", "name": "M\u00fcstecip Onba\u015f\u0131 Sokak", "operator": "\u0130ETT", "public_transport": "platform"}}, {"type": "node", "id": 9232962508, "lat": 40.8775918, "lon": 29.0916175, "tags": {"bus": "yes", "highway": "bus_stop", "name": "Ak\u00e7akoca Sokak", "operator": "\u0130ETT", "public_transport": "platform"}}, {"type": "node", "id": 9232962512, "lat": 40.8784749, "lon": 29.0928581, "tags": {"bus": "yes", "highway": "bus_stop", "name": "\u0130smet \u0130n\u00f6n\u00fc M\u00fczesi", "operator": "\u0130ETT", "public_transport": "platform"}}, {"type": "node", "id": 9232962513, "lat": 40.8779503, "lon": 29.0952601, "tags": {"bus": "yes", "highway": "bus_stop", "name": "\u0130l\u00e7 Milli E\u011fitim M\u00fcd\u00fcrl\u00fc\u011f\u00fc", "operator": "\u0130ETT", "public_transport": "platform"}}, {"type": "node", "id": 9232962514, "lat": 40.8775403, "lon": 29.0980423, "tags": {"bus": "yes", "highway": "bus_stop", "name": "Ulu\u00e7pa\u015fa Sokak", "operator": "\u0130ETT", "public_transport": "platform"}}, {"type": "node", "id": 9232962515, "lat": 40.8773492, "lon": 29.0990036, "tags": {"bus": "yes", "highway": "bus_stop", "name": "Muhtarl\u0131k", "operator": "\u0130ETT", "public_transport": "platform"}}, {"type": "node", "id": 9232988283, "lat": 40.8712413, "lon": 29.0972561, "tags": {"bus": "yes", "highway": "bus_stop", "name": "Mezarl\u0131klar", "network": "\u0130ETT", "network:wikidata": "Q343136", "operator": "\u0130ETT", "public_transport": "platform"}}, {"type": "node", "id": 9233022358, "lat": 40.8764347, "lon": 29.0997106, "tags": {"bench": "no", "bin": "yes", "bus": "yes", "highway": "bus_stop", "name": "\u0130tfaiye", "operator": "\u0130ETT", "public_transport": "platform", "shelter": "no"}}, {"type": "node", "id": 9233022359, "lat": 40.8787039, "lon": 29.0998623, "tags": {"bus": "yes", "highway": "bus_stop", "name": "D\u00fczayak Sokak", "operator": "\u0130ETT", "public_transport": "platform"}}, {"type": "node", "id": 10288058480, "lat": 40.8780078, "lon": 29.1014071, "tags": {"amenity": "ferry_terminal", "ferry": "yes", "name": "Heybeliada", "public_transport": "station"}}, {"type": "node", "id": 10288058484, "lat": 40.8787663, "lon": 29.1004851}, {"type": "way", "id": 401650047, "nodes": [4040610239, 4040610240, 27651261, 27651814, 27651644, 2474547881, 27651272, 4040610239], "tags": {"amenity": "ferry_terminal", "ferry": "yes", "name": "Heybeliada Vapur \u0130skelesi", "operator": "\u015eehir Hatlar\u0131", "public_transport": "station"}}, {"type": "way", "id": 401650048, "nodes": [4040610244, 4040610245, 4040610246, 4040610247, 10288058480, 4040610249, 4040610250, 4040610251, 4040610244], "tags": {"amenity": "ferry_terminal", "ferry": "yes", "name": "Heybeliada \u0130skelesi", "public_transport": "station"}}, {"type": "way", "id": 402967664, "nodes": [4053639164, 4053639165, 3281338268, 10288058484, 4053639167, 4053639164], "tags": {"addr:neighbourhood": "Heybeliada", "amenity": "ferry_terminal", "ferry": "yes", "name": "Heybeliada-B\u00fcy\u00fckada-Kartal Motor \u0130skelesi (Prenstur)", "operator": "Prenstur", "public_transport": "station"}}, {"type": "way", "id": 568584784, "nodes": [5470035018, 5470035019, 5470035020, 5470035121, 5470035018], "tags": {"ferry": "yes", "name": "Heybeliada Adalar Bostanc\u0131 Kabata\u015f Be\u015fikta\u015f Motor \u0130skelesi", "operator": "Mavi Marmara, Avrasya Dentur", "public_transport": "platform", "surface": "paved"}}]}