{"version": 0.6, "generator": "Overpass API 0.7.62.5 1bd436f1", "osm3s": {"timestamp_osm_base": "2025-03-28T17:40:31Z", "copyright": "The data included in this document is from www.openstreetmap.org. The data is made available under ODbL."}, "elements": [{"type": "node", "id": 27651392, "lat": 40.8814845, "lon": 29.0696039, "tags": {"source": "PGS"}}, {"type": "node", "id": 27651570, "lat": 40.881223, "lon": 29.0708068, "tags": {"source": "PGS"}}, {"type": "node", "id": 27651753, "lat": 40.8809768, "lon": 29.0707895, "tags": {"source": "PGS"}}, {"type": "node", "id": 27651943, "lat": 40.8810377, "lon": 29.0698098, "tags": {"source": "PGS"}}, {"type": "node", "id": 351622432, "lat": 40.881278, "lon": 29.0698272}, {"type": "node", "id": 409178527, "lat": 40.8810827, "lon": 29.0707969, "tags": {"name:ar": "\u0645\u062d\u0637\u0629 \u0628\u0648\u0631\u063a \u0632\u0627\u062f\u0629 \u0644\u0644\u0646\u0642\u0644 \u0627\u0644\u0628\u062d\u0631\u064a"}}, {"type": "node", "id": 4038458855, "lat": 40.8814609, "lon": 29.0695704}, {"type": "node", "id": 4038458856, "lat": 40.8812671, "lon": 29.06981}, {"type": "node", "id": 4038458857, "lat": 40.8814058, "lon": 29.0700064, "tags": {"source": "PGS"}}, {"type": "node", "id": 4038458858, "lat": 40.8814776, "lon": 29.0699176}, {"type": "node", "id": 4038458859, "lat": 40.8817363, "lon": 29.0702839}, {"type": "node", "id": 4038458860, "lat": 40.8817737, "lon": 29.0702376}, {"type": "node", "id": 4038458861, "lat": 40.8815177, "lon": 29.0698752}, {"type": "node", "id": 4038458862, "lat": 40.8816023, "lon": 29.0697706}, {"type": "node", "id": 4038458867, "lat": 40.8803335, "lon": 29.0697241}, {"type": "node", "id": 4038458868, "lat": 40.880374, "lon": 29.0698474}, {"type": "node", "id": 4038458869, "lat": 40.8803051, "lon": 29.0699011}, {"type": "node", "id": 4038458870, "lat": 40.8802524, "lon": 29.0697777}, {"type": "node", "id": 6640149119, "lat": 40.8858483, "lon": 29.0603226}, {"type": "node", "id": 6640149121, "lat": 40.8857437, "lon": 29.0606437}, {"type": "node", "id": 6640149122, "lat": 40.8857018, "lon": 29.0606198}, {"type": "node", "id": 6640149123, "lat": 40.8857699, "lon": 29.0604109}, {"type": "node", "id": 6640149124, "lat": 40.8857333, "lon": 29.0603561}, {"type": "node", "id": 6640149125, "lat": 40.8857605, "lon": 29.0602726}, {"type": "node", "id": 9202020449, "lat": 40.8858161, "lon": 29.0604214}, {"type": "node", "id": 9232868037, "lat": 40.881359, "lon": 29.0691826, "tags": {"bus": "yes", "highway": "bus_stop", "name": "Burgaz Ada \u0130skele", "operator": "\u0130ETT", "public_transport": "platform"}}, {"type": "node", "id": 9232868038, "lat": 40.879919, "lon": 29.068789, "tags": {"bus": "yes", "highway": "bus_stop", "name": "Burgazada Mahalle Muhtarl\u0131\u011f\u0131", "operator": "\u0130ETT", "public_transport": "platform"}}, {"type": "node", "id": 9232868039, "lat": 40.8799235, "lon": 29.0677013, "tags": {"bus": "yes", "highway": "bus_stop", "name": "Pazaryolu", "operator": "\u0130ETT", "public_transport": "platform"}}, {"type": "node", "id": 9232868040, "lat": 40.87975, "lon": 29.0670273, "tags": {"bus": "yes", "highway": "bus_stop", "name": "\u00c7\u0131narl\u0131k Sokak", "operator": "\u0130ETT", "public_transport": "platform"}}, {"type": "node", "id": 9232868041, "lat": 40.8815242, "lon": 29.0678699, "tags": {"bus": "yes", "highway": "bus_stop", "name": "G\u00f6n\u00fcll\u00fc Caddesi", "operator": "\u0130ETT", "public_transport": "platform"}}, {"type": "node", "id": 9232868042, "lat": 40.8820231, "lon": 29.067161, "tags": {"bus": "yes", "highway": "bus_stop", "name": "Mehtap Sokak", "operator": "\u0130ETT", "public_transport": "platform"}}, {"type": "node", "id": 9232868043, "lat": 40.8844252, "lon": 29.0679202, "tags": {"bus": "yes", "highway": "bus_stop", "name": "Ay\u0131\u015f\u0131\u011f\u0131 Sokak", "operator": "\u0130ETT", "public_transport": "platform"}}, {"type": "node", "id": 9232868044, "lat": 40.8847686, "lon": 29.0650811, "tags": {"bench": "yes", "bin": "no", "bus": "yes", "highway": "bus_stop", "name": "\u00d6\u011fretmen Evi", "network": "\u0130ETT", "network:wikidata": "Q343136", "operator": "\u0130ETT", "public_transport": "platform", "ref": "287071", "shelter": "no", "website": "https://iett.istanbul/StationDetail?dkod=287071"}}, {"type": "node", "id": 9232868045, "lat": 40.8840196, "lon": 29.063764, "tags": {"bus": "yes", "highway": "bus_stop", "name": "\u0130lkokul", "operator": "\u0130ETT", "public_transport": "platform"}}, {"type": "node", "id": 9232868046, "lat": 40.884558, "lon": 29.0619654, "tags": {"bench": "yes", "bin": "no", "bus": "yes", "highway": "bus_stop", "name": "Cennet yolu Sokak", "network": "\u0130ETT", "network:wikidata": "Q343136", "operator": "\u0130ETT", "public_transport": "platform", "ref": "287081", "shelter": "no", "website": "https://iett.istanbul/StationDetail?dkod=287081"}}, {"type": "node", "id": 11674186188, "lat": 40.8798603, "lon": 29.0687979, "tags": {"bus": "yes", "highway": "bus_stop", "name": "Burgazada Mahalle Muhtarl\u0131\u011f\u0131", "network": "\u0130ETT", "network:wikidata": "Q343136", "operator": "\u0130ETT", "public_transport": "platform", "public_transport:version": "2", "ref": "286631", "website": "https://iett.istanbul/StationDetail?dkod=286631"}}, {"type": "node", "id": 11674186190, "lat": 40.8819595, "lon": 29.0672096, "tags": {"bus": "yes", "highway": "bus_stop", "name": "Mehtap Sokak", "network": "\u0130ETT", "network:wikidata": "Q343136", "operator": "\u0130ETT", "public_transport": "platform", "public_transport:version": "2", "ref": "287211", "website": "https://iett.istanbul/StationDetail?dkod=287211"}}, {"type": "node", "id": 11674186191, "lat": 40.8796692, "lon": 29.066949, "tags": {"bus": "yes", "highway": "bus_stop", "name": "\u00c7\u0131narl\u0131k Sokak", "network": "\u0130ETT", "network:wikidata": "Q343136", "operator": "\u0130ETT", "public_transport": "platform", "public_transport:version": "2", "ref": "287221", "website": "https://iett.istanbul/StationDetail?dkod=287221"}}, {"type": "node", "id": 11674186192, "lat": 40.884041, "lon": 29.0631845, "tags": {"bus": "yes", "highway": "bus_stop", "name": "\u0130lkokul", "network": "\u0130ETT", "network:wikidata": "Q343136", "operator": "\u0130ETT", "public_transport": "platform", "public_transport:version": "2", "ref": "286671", "website": "https://iett.istanbul/StationDetail?dkod=286671"}}, {"type": "node", "id": 11674186193, "lat": 40.8798098, "lon": 29.0677451, "tags": {"bus": "yes", "highway": "bus_stop", "name": "Pazar Yolu", "network": "\u0130ETT", "network:wikidata": "Q343136", "operator": "\u0130ETT", "public_transport": "platform", "public_transport:version": "2", "ref": "287041", "website": "https://iett.istanbul/StationDetail?dkod=287041"}}, {"type": "node", "id": 11674186197, "lat": 40.884388, "lon": 29.067893, "tags": {"bus": "yes", "highway": "bus_stop", "name": "Ay\u0131\u015f\u0131\u011f\u0131 Sokak", "network": "\u0130ETT", "network:wikidata": "Q343136", "operator": "\u0130ETT", "public_transport": "platform", "public_transport:version": "2", "ref": "287061", "website": "https://iett.istanbul/StationDetail?dkod=287061"}}, {"type": "node", "id": 11674186198, "lat": 40.8815097, "lon": 29.0679202, "tags": {"bus": "yes", "highway": "bus_stop", "name": "G\u00f6n\u00fcll\u00fc Caddesi", "network": "\u0130ETT", "network:wikidata": "Q343136", "operator": "\u0130ETT", "public_transport": "platform", "public_transport:version": "2", "ref": "287051", "website": "https://iett.istanbul/StationDetail?dkod=287051"}}, {"type": "node", "id": 11674186199, "lat": 40.881488, "lon": 29.069097, "tags": {"bus": "yes", "highway": "bus_stop", "name": "Burgazada \u0130skele", "network": "\u0130ETT", "network:wikidata": "Q343136", "operator": "\u0130ETT", "public_transport": "platform", "public_transport:version": "2", "ref": "401361", "website": "https://iett.istanbul/StationDetail?dkod=401361"}}, {"type": "way", "id": 401416369, "nodes": [4038458855, 4038458856, 4038458857, 4038458858, 4038458859, 4038458860, 4038458861, 4038458862, 27651392, 4038458855], "tags": {"amenity": "ferry_terminal", "ferry": "yes", "name": "Burgazada Deniz Otob\u00fcs\u00fc \u0130skelesi", "operator": "\u0130DO", "public_transport": "station"}}, {"type": "way", "id": 401416370, "nodes": [27651943, 351622432, 27651570, 409178527, 27651753, 27651943], "tags": {"amenity": "ferry_terminal", "ferry": "yes", "name": "Burgazada Vapur \u0130skelesi", "operator": "\u015eehir Hatlar\u0131", "public_transport": "station", "wikidata": "Q133467960", "wikipedia": "tr:Burgazada \u0130skelesi"}}, {"type": "way", "id": 401416371, "nodes": [4038458867, 4038458868, 4038458869, 4038458870, 4038458867], "tags": {"amenity": "ferry_terminal", "ferry": "yes", "name": "Burgazada Motor \u0130skelesi", "operator": "Mavi Marmara", "public_transport": "station"}}, {"type": "way", "id": 706628995, "nodes": [6640149119, 9202020449, 6640149121, 6640149122, 6640149123, 6640149124, 6640149125, 6640149119], "tags": {"area": "yes", "ferry": "yes", "public_transport": "platform"}}]}