{"version": 0.6, "generator": "Overpass API 0.7.62.5 1bd436f1", "osm3s": {"timestamp_osm_base": "2025-03-28T17:28:16Z", "copyright": "The data included in this document is from www.openstreetmap.org. The data is made available under ODbL."}, "elements": [{"type": "node", "id": 7591718307, "lat": 40.9956435, "lon": 28.7063516, "tags": {"addr:city": "Istanbul", "addr:district": "avc\u0131lar", "addr:neighbourhood": "\u00dcniversite Mahallesi", "addr:postcode": "34310", "addr:street": "Mare\u015fal Caddesi", "name": "Onur Market", "shop": "supermarket"}}, {"type": "node", "id": 7591718323, "lat": 40.9957682, "lon": 28.7068407, "tags": {"addr:city": "Istanbul", "addr:district": "avc\u0131lar", "addr:neighbourhood": "\u00dcniversite Mahallesi", "addr:street": "Hilal Soka\u011f\u0131", "brand": "A101", "brand:wikidata": "Q6034496", "brand:wikipedia": "tr:A101", "name": "A101", "opening_hours": "Mo-Su 09:00-21:30", "payment:cash": "yes", "payment:credit_cards": "yes", "shop": "supermarket", "website": "https://www.a101.com.tr/"}}, {"type": "node", "id": 7591718324, "lat": 40.9961406, "lon": 28.706154, "tags": {"addr:city": "Istanbul", "addr:district": "avc\u0131lar", "addr:neighbourhood": "\u00dcniversite Mahallesi", "addr:street": "Hilal Soka\u011f\u0131", "brand": "B\u0130M", "brand:wikidata": "Q1022075", "brand:wikipedia": "en:Bim (company)", "name": "B\u0130M", "opening_hours": "Mo-Su 09:00-21:00", "payment:cash": "yes", "payment:credit_cards": "yes", "shop": "supermarket"}}, {"type": "node", "id": 7591718334, "lat": 40.9987274, "lon": 28.7091433, "tags": {"addr:city": "istanbul", "addr:district": "avc\u0131lar", "addr:street": "\u0130stiklal Caddesi", "name": "U\u011furlu Kuruyemi\u015f", "opening_hours": "Mo-Su 08:00-23:00", "payment:cash": "yes", "payment:credit_cards": "yes", "shop": "convenience"}}, {"type": "node", "id": 7591718355, "lat": 40.9952365, "lon": 28.7094657, "tags": {"addr:city": "istanbul", "addr:district": "avc\u0131lar", "addr:neighbourhood": "\u00dcniversite Mahallesi", "addr:street": "Uran Caddesi", "name": "Ate\u015fo\u011flu Market", "payment:cash": "yes", "payment:credit_cards": "yes", "shop": "supermarket"}}, {"type": "node", "id": 7592436091, "lat": 40.9998629, "lon": 28.7105813, "tags": {"addr:city": "istanbul", "addr:district": "avc\u0131lar", "addr:neighbourhood": "\u00dcniversite Mahallesi", "addr:street": "Mare\u015fal Caddesi", "name": "Altun Market", "payment:cash": "yes", "payment:credit_cards": "yes", "shop": "supermarket"}}, {"type": "node", "id": 7592436092, "lat": 40.9990344, "lon": 28.7094266, "tags": {"addr:city": "istanbul", "addr:district": "avc\u0131lar", "addr:neighbourhood": "\u00dcniversite Mahallesi", "addr:street": "Mare\u015fal Caddesi", "name": "Do\u011fanlar S\u00fcpermarket", "payment:cash": "yes", "payment:credit_cards": "yes", "shop": "supermarket"}}, {"type": "node", "id": 7592436093, "lat": 40.9978986, "lon": 28.7086184, "tags": {"addr:city": "istanbul", "addr:district": "avc\u0131lar", "addr:neighbourhood": "\u00dcniversite Mahallesi", "addr:street": "Mare\u015fal Caddesi", "brand": "B\u0130M", "brand:wikidata": "Q1022075", "brand:wikipedia": "en:Bim (company)", "name": "B\u0130M", "opening_hours": "Mo-Su 09:00-21:00", "payment:cash": "yes", "payment:credit_cards": "yes", "shop": "supermarket"}}, {"type": "node", "id": 7592436136, "lat": 40.9972158, "lon": 28.7079132, "tags": {"addr:city": "Istanbul", "addr:district": "avc\u0131lar", "addr:neighbourhood": "\u00dcniversite Mahallesi", "addr:street": "Fidan Soka\u011f\u0131", "description": "Kuruyemi\u015f \u00fcr\u00fcnleri", "name": "Makbul", "payment:cash": "yes", "payment:credit_cards": "yes", "shop": "convenience"}}, {"type": "node", "id": 7592958759, "lat": 41.0008729, "lon": 28.7053021, "tags": {"addr:city": "\u0130stanbul", "addr:district": "avc\u0131lar", "addr:street": "\u0130stiklal Caddesi", "name": "\u00c7il Karde\u015fler S\u00fcpermarket", "payment:cash": "yes", "payment:credit_cards": "yes", "shop": "supermarket"}}, {"type": "node", "id": 7592958760, "lat": 41.0012147, "lon": 28.7052713, "tags": {"addr:city": "\u0130stanbul", "addr:district": "avc\u0131lar", "addr:street": "Mimar Sinan Caddesi", "name": "Irmaklar", "payment:cash": "yes", "payment:credit_cards": "yes", "shop": "supermarket"}}, {"type": "node", "id": 7592958768, "lat": 40.9981991, "lon": 28.7085755, "tags": {"addr:city": "istanbul", "addr:district": "avc\u0131lar", "addr:neighbourhood": "\u00dcniversite Mahallesi", "addr:street": "Mare\u015fal Caddesi", "name": "Onur Market", "payment:cash": "yes", "payment:credit_cards": "yes", "shop": "supermarket"}}, {"type": "node", "id": 7592958771, "lat": 40.9960047, "lon": 28.7108038, "tags": {"addr:city": "istanbul", "addr:district": "avc\u0131lar", "addr:neighbourhood": "\u00dcniversite Mahallesi", "addr:street": "\u00dcner Soka\u011f\u0131", "name": "Dilek S\u00fcpermarket", "payment:cash": "yes", "payment:credit_cards": "yes", "shop": "supermarket"}}, {"type": "node", "id": 11170457538, "lat": 40.9952556, "lon": 28.7136987, "tags": {"brand": "CarrefourSA", "brand:wikidata": "Q28870164", "name": "CarrefourSA", "shop": "supermarket"}}, {"type": "node", "id": 11170457595, "lat": 40.996631, "lon": 28.7128553, "tags": {"brand": "A101", "brand:wikidata": "Q6034496", "name": "A101", "opening_hours": "Mo-Su 09:00-21:30", "shop": "supermarket"}}, {"type": "node", "id": 12151202255, "lat": 41.0043593, "lon": 28.6993527, "tags": {"addr:city": "\u0130stanbul", "addr:district": "Esenyurt", "addr:neighbourhood": "Turgut \u00d6zal Mahallesi", "addr:street": "Oktay R\u0131fat Caddesi", "brand": "\u015eok", "brand:wikidata": "Q19613992", "name": "\u015eok Mini", "opening_hours": "Mo-Su 08:00-21:00", "payment:cash": "yes", "payment:credit_cards": "yes", "shop": "convenience"}}, {"type": "node", "id": 12151202256, "lat": 41.0028984, "lon": 28.699046, "tags": {"addr:city": "\u0130stanbul", "addr:district": "Esenyurt", "addr:neighbourhood": "Turgut \u00d6zal Mahallesi", "addr:postcode": "34513", "addr:street": "59. Sokak", "name": "Kul F\u0131r\u0131n", "opening_hours": "Mo-Su 08:00-22:00", "payment:cash": "yes", "payment:credit_cards": "yes", "shop": "bakery"}}, {"type": "node", "id": 12151557779, "lat": 41.0045259, "lon": 28.6993298, "tags": {"addr:city": "\u0130stanbul", "addr:district": "Esenyurt", "addr:neighbourhood": "Turgut \u00d6zal Mahallesi", "addr:postcode": "34513", "addr:street": "Oktay R\u0131fat Caddesi", "name": "Ekmek Saray\u0131", "opening_hours": "Mo-Su 07:00-22:00", "payment:cash": "yes", "payment:credit_cards": "yes", "shop": "bakery", "source": "local knowledge"}}, {"type": "node", "id": 12151557781, "lat": 41.0032334, "lon": 28.6990966, "tags": {"addr:city": "\u0130stanbul", "addr:district": "Esenyurt", "addr:neighbourhood": "Turgut \u00d6zal Mahallesi", "addr:postcode": "34513", "addr:street": "Su Yolu Caddesi", "name": "Mirmar Market", "opening_hours": "Mo-Su 08:00-02:00", "payment:cash": "yes", "payment:credit_cards": "yes", "shop": "convenience"}}, {"type": "node", "id": 12151557783, "lat": 41.0044535, "lon": 28.6973908, "tags": {"addr:city": "\u0130stanbul", "addr:district": "Esenyurt", "addr:neighbourhood": "Turgut \u00d6zal Mahallesi", "addr:postcode": "34513", "addr:street": "Oktay R\u0131fat Caddesi", "brand": "A101", "brand:wikidata": "Q6034496", "name": "A101", "opening_hours": "Mo-Su 08:00-21:00", "payment:cash": "yes", "payment:credit_cards": "yes", "shop": "supermarket"}}, {"type": "node", "id": 12151557784, "lat": 41.0046961, "lon": 28.6974093, "tags": {"addr:city": "\u0130stanbul", "addr:district": "Esenyurt", "addr:neighbourhood": "Turgut \u00d6zal Mahallesi", "addr:postcode": "34513", "addr:street": "Oktay R\u0131fat Caddesi", "name": "Mevlana Market", "opening_hours": "Mo-Su 08:00-00:00", "shop": "convenience"}}, {"type": "node", "id": 12151557785, "lat": 41.0032758, "lon": 28.6985878, "tags": {"addr:city": "\u0130stanbul", "addr:district": "Esenyurt", "addr:neighbourhood": "Turgut \u00d6zal Mahallesi", "addr:postcode": "34513", "addr:street": "Su Yolu Caddesi", "brand": "\u015eok", "brand:wikidata": "Q19613992", "name": "\u015eok", "opening_hours": "Mo-Su 08:00-21:00", "payment:cash": "yes", "payment:credit_cards": "yes", "shop": "supermarket"}}, {"type": "node", "id": 12151557786, "lat": 41.0056546, "lon": 28.6991334, "tags": {"addr:city": "\u0130stanbul", "addr:district": "Esenyurt", "addr:neighbourhood": "Turgut \u00d6zal Mahallesi", "addr:postcode": "34513", "addr:street": "92. Sokak", "brand": "A101", "brand:wikidata": "Q6034496", "name": "A101", "opening_hours": "Mo-Su 08:00-21:00", "shop": "supermarket"}}, {"type": "node", "id": 12151557787, "lat": 41.0039185, "lon": 28.6974111, "tags": {"addr:city": "\u0130stanbul", "addr:district": "Esenyurt", "addr:neighbourhood": "Turgut \u00d6zal Mahallesi", "addr:postcode": "34513", "addr:street": "55. Sokak", "brand": "B\u0130M", "brand:wikidata": "Q1022075", "name": "B\u0130M", "opening_hours": "Mo-Su 08:00-21:00", "payment:cash": "yes", "payment:credit_cards": "yes", "shop": "supermarket"}}, {"type": "node", "id": 12151557788, "lat": 41.0038438, "lon": 28.6974052, "tags": {"addr:city": "\u0130stanbul", "addr:district": "Esenyurt", "addr:neighbourhood": "Turgut \u00d6zal Mahallesi", "addr:postcode": "34513", "addr:street": "55. Sokak", "brand": "T\u00fcrkiye Tar\u0131m Kredi Kooperatif Market", "brand:tr": "T\u00fcrkiye Tar\u0131m Kredi Kooperatif Market", "brand:wikidata": "Q127328776", "name": "T\u00fcrkiye Tar\u0131m Kredi Kooperatif Market", "opening_hours": "Mo-Su 08:00-21:00", "payment:cash": "yes", "payment:credit_cards": "yes", "shop": "supermarket"}}, {"type": "node", "id": 12151557789, "lat": 41.0040148, "lon": 28.6974093, "tags": {"addr:city": "\u0130stanbul", "addr:district": "Esenyurt", "addr:neighbourhood": "Turgut \u00d6zal Mahallesi", "addr:postcode": "34513", "addr:street": "55. Sokak", "name": "\u00c7il Karde\u015fler Market", "opening_hours": "Mo-Su 08:00-21:00", "payment:cash": "yes", "payment:credit_cards": "yes", "shop": "convenience"}}, {"type": "node", "id": 12151557793, "lat": 41.0029753, "lon": 28.6975102, "tags": {"addr:city": "\u0130stanbul", "addr:district": "Esenyurt", "addr:neighbourhood": "Turgut \u00d6zal Mahallesi", "addr:postcode": "34513", "addr:street": "55. Sokak", "brand": "A101", "brand:wikidata": "Q6034496", "name": "A101", "opening_hours": "Mo-Su 08:00-21:00", "payment:cash": "yes", "payment:credit_cards": "yes", "shop": "supermarket"}}, {"type": "node", "id": 12151557794, "lat": 41.0049963, "lon": 28.6973983, "tags": {"addr:city": "\u0130stanbul", "addr:district": "Esenyurt", "addr:neighbourhood": "Turgut \u00d6zal Mahallesi", "addr:postcode": "34513", "addr:street": "55. Sokak", "brand": "\u015eok", "brand:wikidata": "Q19613992", "name": "\u015eok", "opening_hours": "Mo-Su 08:00-21:00", "payment:cash": "yes", "payment:credit_cards": "yes", "shop": "supermarket"}}, {"type": "node", "id": 12154724799, "lat": 41.0040484, "lon": 28.7002782, "tags": {"addr:city": "\u0130stanbul", "addr:district": "Esenyurt", "addr:neighbourhood": "Mustafa Kemal Pa\u015fa Mahallesi", "addr:postcode": "34513", "addr:street": "\u0130stiklal Caddesi", "brand": "Ekomini", "brand:wikidata": "Q115534014", "name": "Ekomini", "opening_hours": "Mo-Su 09:00-01:00", "payment:cash": "yes", "payment:credit_cards": "yes", "shop": "convenience"}}, {"type": "node", "id": 12154729106, "lat": 41.0029647, "lon": 28.7005991, "tags": {"addr:city": "\u0130stanbul", "addr:district": "Avc\u0131lar", "addr:neighbourhood": "Mustafa Kemal Pa\u015fa Mahallesi", "addr:postcode": "34513", "addr:street": "Y\u0131ld\u0131r\u0131m Beyaz\u0131t Caddesi", "brand": "\u015eok", "brand:wikidata": "Q19613992", "name": "\u015eok", "opening_hours": "Mo-Su 08:00-21:00", "payment:cash": "yes", "payment:credit_cards": "yes", "shop": "supermarket"}}]}