{"version": 0.6, "generator": "Overpass API 0.7.62.5 1bd436f1", "osm3s": {"timestamp_osm_base": "2025-03-28T19:03:17Z", "copyright": "The data included in this document is from www.openstreetmap.org. The data is made available under ODbL."}, "elements": [{"type": "node", "id": 1910074481, "lat": 41.0949127, "lon": 29.0892867, "tags": {"brand": "Carrefour", "brand:wikidata": "Q217599", "brand:wikipedia": "fr:Carrefour (enseigne)", "name": "Carrefour", "operator": "Groupe Carrefour", "operator:wikidata": "Q3117359", "operator:wikipedia": "fr:Groupe Carrefour", "shop": "supermarket"}}, {"type": "node", "id": 3473447795, "lat": 41.0902558, "lon": 29.0809857, "tags": {"name": "Din\u00e7mar", "shop": "supermarket"}}, {"type": "node", "id": 3474488523, "lat": 41.0941598, "lon": 29.0866926, "tags": {"name": "Papo\u011flu", "shop": "supermarket"}}, {"type": "node", "id": 4564625908, "lat": 41.0925936, "lon": 29.0859935, "tags": {"addr:housenumber": "31C", "addr:street": "Fatih Sultan Mehmet Cd.", "description": "ekmek ve unlu mam\u00fcller", "internet_access": "no", "name": "ge\u00e7it ekmek f\u0131r\u0131n\u0131", "shop": "bakery", "smoking": "no"}}, {"type": "node", "id": 4581049004, "lat": 41.0932494, "lon": 29.086937, "tags": {"addr:housenumber": "3", "brand": "B\u0130M", "brand:wikidata": "Q1022075", "brand:wikipedia": "en:Bim (company)", "name": "B\u0130M", "opening_hours": "Mo-Su 09:00-21:00", "shop": "supermarket"}}, {"type": "node", "id": 4581871737, "lat": 41.0931799, "lon": 29.0878383}, {"type": "node", "id": 4581871738, "lat": 41.0930392, "lon": 29.087786}, {"type": "node", "id": 4581871739, "lat": 41.0930072, "lon": 29.087986}, {"type": "node", "id": 4581871741, "lat": 41.0931626, "lon": 29.0880378}, {"type": "node", "id": 4583084720, "lat": 41.0947828, "lon": 29.0886152, "tags": {"addr:housenumber": "53/B", "addr:street": "Orhan Veli Kan\u0131k Cd.", "name": "Beykoz Market", "payment:american_express": "yes", "payment:cash": "yes", "payment:contactless": "yes", "payment:credit_cards": "yes", "payment:debit_cards": "yes", "payment:maestro": "yes", "payment:mastercard": "yes", "payment:visa": "yes", "shop": "supermarket", "website": "https://beykozmarket.com/"}}, {"type": "node", "id": 4583084721, "lat": 41.0948349, "lon": 29.088513, "tags": {"addr:housenumber": "53B", "addr:street": "Orhan Veli Kan\u0131k Cd.", "name": "define ekmak f\u0131r\u0131n\u0131", "shop": "bakery"}}, {"type": "node", "id": 4583084732, "lat": 41.0950918, "lon": 29.0874809, "tags": {"brand": "\u015eok", "brand:wikidata": "Q19613992", "brand:wikipedia": "tr:\u015eok (market)", "name": "\u015eok", "shop": "supermarket"}}, {"type": "node", "id": 4638965834, "lat": 41.0966317, "lon": 29.0867526}, {"type": "node", "id": 4638965835, "lat": 41.0965243, "lon": 29.0867362}, {"type": "node", "id": 4638965836, "lat": 41.0963713, "lon": 29.0867059}, {"type": "node", "id": 4638965837, "lat": 41.0963378, "lon": 29.0869721}, {"type": "node", "id": 4638965838, "lat": 41.0965032, "lon": 29.0869977}, {"type": "node", "id": 4638965839, "lat": 41.0966053, "lon": 29.0870234}, {"type": "node", "id": 4691931892, "lat": 41.0933466, "lon": 29.0863842, "tags": {"name": "mini hal manav", "shop": "greengrocer"}}, {"type": "node", "id": 4691931896, "lat": 41.0938401, "lon": 29.0867031, "tags": {"addr:housenumber": "12", "name": "Bekiro\u011flu  bakkal", "name:en": "Bekiroglu Grocery", "shop": "convenience"}}, {"type": "node", "id": 5302169511, "lat": 41.1000488, "lon": 29.0878024, "tags": {"brand": "B\u0130M", "brand:wikidata": "Q1022075", "brand:wikipedia": "en:Bim (company)", "name": "B\u0130M", "opening_hours": "Mo-Su 09:00-21:00", "shop": "supermarket"}}, {"type": "node", "id": 8037713661, "lat": 41.0928401, "lon": 29.0894056, "tags": {"name": "Kaya Market", "shop": "convenience"}}, {"type": "way", "id": 462856675, "nodes": [4581871737, 4581871738, 4581871739, 4581871741, 4581871737], "tags": {"building": "yes", "name": "\u00f6zer hipermarket", "shop": "supermarket"}}, {"type": "way", "id": 469595233, "nodes": [4638965834, 4638965835, 4638965836, 4638965837, 4638965838, 4638965839, 4638965834], "tags": {"building": "yes", "name": "mopa\u015f", "shop": "supermarket"}}]}