{"version": 0.6, "generator": "Overpass API 0.7.62.5 1bd436f1", "osm3s": {"timestamp_osm_base": "2025-03-28T23:32:09Z", "copyright": "The data included in this document is from www.openstreetmap.org. The data is made available under ODbL."}, "elements": [{"type": "node", "id": 3281338268, "lat": 40.8787861, "lon": 29.1004747}, {"type": "node", "id": 4053639164, "lat": 40.8787364, "lon": 29.1002411}, {"type": "node", "id": 4053639165, "lat": 40.8788036, "lon": 29.1004656}, {"type": "node", "id": 4053639167, "lat": 40.878699, "lon": 29.1002606}, {"type": "node", "id": 9232962504, "lat": 40.8731039, "lon": 29.0987908, "tags": {"bus": "yes", "highway": "bus_stop", "name": "\u015eafak Orduevi", "operator": "\u0130ETT", "public_transport": "platform"}}, {"type": "node", "id": 9232962505, "lat": 40.8752151, "lon": 29.0965981, "tags": {"bus": "yes", "highway": "bus_stop", "name": "Bahariye Bay\u0131r\u0131", "operator": "\u0130ETT", "public_transport": "platform"}}, {"type": "node", "id": 9232962506, "lat": 40.8761826, "lon": 29.0931003, "tags": {"bus": "yes", "highway": "bus_stop", "name": "\u015eehit Dursun Keser Sokak", "operator": "\u0130ETT", "public_transport": "platform"}}, {"type": "node", "id": 9232962507, "lat": 40.8764159, "lon": 29.0945164, "tags": {"bus": "yes", "highway": "bus_stop", "name": "M\u00fcstecip Onba\u015f\u0131 Sokak", "operator": "\u0130ETT", "public_transport": "platform"}}, {"type": "node", "id": 9232962508, "lat": 40.8775918, "lon": 29.0916175, "tags": {"bus": "yes", "highway": "bus_stop", "name": "Ak\u00e7akoca Sokak", "operator": "\u0130ETT", "public_transport": "platform"}}, {"type": "node", "id": 9232962511, "lat": 40.8777511, "lon": 29.089052, "tags": {"bench": "no", "bin": "no", "bus": "yes", "highway": "bus_stop", "lit": "no", "name": "Asaf Bey Plaj\u0131", "operator": "\u0130ETT", "public_transport": "platform", "ref": "asaf bey plaji", "shelter": "no"}}, {"type": "node", "id": 9232962512, "lat": 40.8784749, "lon": 29.0928581, "tags": {"bus": "yes", "highway": "bus_stop", "name": "\u0130smet \u0130n\u00f6n\u00fc M\u00fczesi", "operator": "\u0130ETT", "public_transport": "platform"}}, {"type": "node", "id": 9232962513, "lat": 40.8779503, "lon": 29.0952601, "tags": {"bus": "yes", "highway": "bus_stop", "name": "\u0130l\u00e7 Milli E\u011fitim M\u00fcd\u00fcrl\u00fc\u011f\u00fc", "operator": "\u0130ETT", "public_transport": "platform"}}, {"type": "node", "id": 9232962514, "lat": 40.8775403, "lon": 29.0980423, "tags": {"bus": "yes", "highway": "bus_stop", "name": "Ulu\u00e7pa\u015fa Sokak", "operator": "\u0130ETT", "public_transport": "platform"}}, {"type": "node", "id": 9232962515, "lat": 40.8773492, "lon": 29.0990036, "tags": {"bus": "yes", "highway": "bus_stop", "name": "Muhtarl\u0131k", "operator": "\u0130ETT", "public_transport": "platform"}}, {"type": "node", "id": 9232988283, "lat": 40.8712413, "lon": 29.0972561, "tags": {"bus": "yes", "highway": "bus_stop", "name": "Mezarl\u0131klar", "network": "\u0130ETT", "network:wikidata": "Q343136", "operator": "\u0130ETT", "public_transport": "platform"}}, {"type": "node", "id": 9232988284, "lat": 40.8696958, "lon": 29.0917245, "tags": {"bus": "yes", "highway": "bus_stop", "name": "Hastane", "operator": "\u0130ETT", "public_transport": "platform"}}, {"type": "node", "id": 9232988285, "lat": 40.8714816, "lon": 29.0879914, "tags": {"bus": "yes", "highway": "bus_stop", "name": "\u00c7amliman\u0131", "operator": "\u0130ETT", "public_transport": "platform"}}, {"type": "node", "id": 9232988289, "lat": 40.8759776, "lon": 29.0836564, "tags": {"bus": "yes", "highway": "bus_stop", "name": "Seyir Teras\u0131 1", "operator": "\u0130ETT", "public_transport": "platform"}}, {"type": "node", "id": 9233022358, "lat": 40.8764347, "lon": 29.0997106, "tags": {"bench": "no", "bin": "yes", "bus": "yes", "highway": "bus_stop", "name": "\u0130tfaiye", "operator": "\u0130ETT", "public_transport": "platform", "shelter": "no"}}, {"type": "node", "id": 9233022359, "lat": 40.8787039, "lon": 29.0998623, "tags": {"bus": "yes", "highway": "bus_stop", "name": "D\u00fczayak Sokak", "operator": "\u0130ETT", "public_transport": "platform"}}, {"type": "node", "id": 10288058484, "lat": 40.8787663, "lon": 29.1004851}, {"type": "way", "id": 402967664, "nodes": [4053639164, 4053639165, 3281338268, 10288058484, 4053639167, 4053639164], "tags": {"addr:neighbourhood": "Heybeliada", "amenity": "ferry_terminal", "ferry": "yes", "name": "Heybeliada-B\u00fcy\u00fckada-Kartal Motor \u0130skelesi (Prenstur)", "operator": "Prenstur", "public_transport": "station"}}]}