{"version": 0.6, "generator": "Overpass API 0.7.62.5 1bd436f1", "osm3s": {"timestamp_osm_base": "2025-03-28T18:51:00Z", "copyright": "The data included in this document is from www.openstreetmap.org. The data is made available under ODbL."}, "elements": [{"type": "node", "id": 493262183, "lat": 40.8761009, "lon": 29.1277843, "tags": {"amenity": "ferry_terminal", "ferry": "yes", "man_made": "beacon", "name": "B\u00fcy\u00fckada - \u015eehir Hatlar\u0131", "operator": "\u015eehir Hatlar\u0131", "public_transport": "station", "seamark:light:character": "Iso", "seamark:light:colour": "yellow", "seamark:light:period": "3", "seamark:light:range": "3", "seamark:type": "light_minor", "source": "https://msi.nga.mil/Publications/NGALOL"}}, {"type": "node", "id": 4040637476, "lat": 40.8747256, "lon": 29.1255631, "tags": {"amenity": "ferry_terminal", "ferry": "yes", "name": "Adalar", "name:ru": "\u0411\u044e\u044e\u043a\u0430\u0434\u0430", "public_transport": "station"}}, {"type": "node", "id": 4746279723, "lat": 40.8744993, "lon": 29.1275232, "tags": {"amenity": "ferry_terminal", "ferry": "yes", "name:en": "buyukada", "name:ru": "\u0411\u044e\u044e\u043a\u0430\u0434\u0430", "public_transport": "station"}}, {"type": "node", "id": 4875414044, "lat": 40.8750182, "lon": 29.1283097}, {"type": "node", "id": 4875414045, "lat": 40.8749691, "lon": 29.1280896}, {"type": "node", "id": 4875414046, "lat": 40.8748723, "lon": 29.1283666}, {"type": "node", "id": 4875414047, "lat": 40.8748232, "lon": 29.1281466}, {"type": "node", "id": 6573849069, "lat": 40.8752753, "lon": 29.1313661, "tags": {"amenity": "ferry_terminal", "ferry": "yes", "name": "B\u00fcy\u00fckada", "operator": "Turyol", "public_transport": "station"}}, {"type": "node", "id": 6573849718, "lat": 40.8745452, "lon": 29.1272763}, {"type": "node", "id": 6573849719, "lat": 40.8744352, "lon": 29.1273384}, {"type": "node", "id": 6573849720, "lat": 40.8744718, "lon": 29.1274518}, {"type": "node", "id": 6573849721, "lat": 40.8745818, "lon": 29.1273897}, {"type": "node", "id": 9232837724, "lat": 40.8739934, "lon": 29.1291275, "tags": {"bus": "yes", "highway": "bus_stop", "name": "Araba Meydan\u0131", "network": "\u0130ETT", "network:wikidata": "Q343136", "operator": "\u0130ETT", "public_transport": "platform"}}, {"type": "node", "id": 9232837728, "lat": 40.8731128, "lon": 29.1275931, "tags": {"bus": "yes", "highway": "bus_stop", "name": "Polis Merkezi", "network": "\u0130ETT", "network:wikidata": "Q343136", "operator": "\u0130ETT", "public_transport": "platform"}}, {"type": "node", "id": 9232837733, "lat": 40.8702546, "lon": 29.1272995, "tags": {"bus": "yes", "highway": "bus_stop", "name": "Kad\u0131yoran 2", "network": "\u0130ETT", "network:wikidata": "Q343136", "operator": "\u0130ETT", "public_transport": "platform"}}, {"type": "node", "id": 9232837734, "lat": 40.8702146, "lon": 29.1286675, "tags": {"bus": "yes", "highway": "bus_stop", "name": "Hastane", "network": "\u0130ETT", "network:wikidata": "Q343136", "operator": "\u0130ETT", "public_transport": "platform"}}, {"type": "node", "id": 9232837735, "lat": 40.8702636, "lon": 29.1302075, "tags": {"bus": "yes", "highway": "bus_stop", "name": "\u00c7ark\u0131felek", "network": "\u0130ETT", "network:wikidata": "Q343136", "operator": "\u0130ETT", "public_transport": "platform"}}, {"type": "node", "id": 9232837736, "lat": 40.8693529, "lon": 29.1308981, "tags": {"bus": "yes", "highway": "bus_stop", "name": "Erdal Bakkal", "network": "\u0130ETT", "network:wikidata": "Q343136", "operator": "\u0130ETT", "public_transport": "platform"}}, {"type": "node", "id": 9232837748, "lat": 40.868157, "lon": 29.1252193, "tags": {"bus": "yes", "highway": "bus_stop", "name": "Ta\u015f Mektep", "network": "\u0130ETT", "network:wikidata": "Q343136", "operator": "\u0130ETT", "public_transport": "platform"}}, {"type": "node", "id": 9232837749, "lat": 40.8728977, "lon": 29.1316702, "tags": {"bus": "yes", "highway": "bus_stop", "name": "\u00c7\u0131nar Caddesi", "network": "\u0130ETT", "network:wikidata": "Q343136", "operator": "\u0130ETT", "public_transport": "platform"}}, {"type": "node", "id": 9232843282, "lat": 40.8704412, "lon": 29.1222559, "tags": {"bus": "yes", "highway": "bus_stop", "name": "Adliye", "network": "\u0130ETT", "network:wikidata": "Q343136", "operator": "\u0130ETT", "public_transport": "platform"}}, {"type": "node", "id": 9232843303, "lat": 40.8691716, "lon": 29.135951, "tags": {"bus": "yes", "highway": "bus_stop", "name": "Mercan Sokak", "network": "\u0130ETT", "network:wikidata": "Q343136", "operator": "\u0130ETT", "public_transport": "platform"}}, {"type": "node", "id": 9232843304, "lat": 40.8711695, "lon": 29.1349427, "tags": {"bus": "yes", "highway": "bus_stop", "name": "Halk E\u011fitim Merkezi", "network": "\u0130ETT", "network:wikidata": "Q343136", "operator": "\u0130ETT", "public_transport": "platform"}}, {"type": "node", "id": 9232843305, "lat": 40.8714898, "lon": 29.1340223, "tags": {"bus": "yes", "highway": "bus_stop", "name": "Sevili Cami", "network": "\u0130ETT", "network:wikidata": "Q343136", "operator": "\u0130ETT", "public_transport": "platform"}}, {"type": "node", "id": 9232843648, "lat": 40.8731854, "lon": 29.1334136, "tags": {"bus": "yes", "highway": "bus_stop", "name": "Pervane Sokak", "network": "\u0130ETT", "network:wikidata": "Q343136", "operator": "\u0130ETT", "public_transport": "platform"}}, {"type": "node", "id": 9232843649, "lat": 40.8727531, "lon": 29.1348619, "tags": {"bus": "yes", "highway": "bus_stop", "name": "Kumsal", "network": "\u0130ETT", "network:wikidata": "Q343136", "operator": "\u0130ETT", "public_transport": "platform"}}, {"type": "node", "id": 9232843650, "lat": 40.8721319, "lon": 29.1362889, "tags": {"bus": "yes", "highway": "bus_stop", "name": "Zagnos Pa\u015fa Caddesi", "network": "\u0130ETT", "network:wikidata": "Q343136", "operator": "\u0130ETT", "public_transport": "platform"}}, {"type": "node", "id": 9232843651, "lat": 40.8707668, "lon": 29.1364179, "tags": {"bus": "yes", "highway": "bus_stop", "name": "Alparslan Sokak", "network": "\u0130ETT", "network:wikidata": "Q343136", "operator": "\u0130ETT", "public_transport": "platform"}}, {"type": "node", "id": 10946694981, "lat": 40.8749132, "lon": 29.1282788}, {"type": "node", "id": 10946694982, "lat": 40.8748921, "lon": 29.1281844}, {"type": "node", "id": 10946694983, "lat": 40.8749824, "lon": 29.1281492}, {"type": "node", "id": 10946694984, "lat": 40.8750035, "lon": 29.1282436}, {"type": "way", "id": 495802555, "nodes": [4875414045, 10946694983, 10946694982, 10946694981, 10946694984, 4875414044, 4875414046, 4875414047, 4875414045], "tags": {"amenity": "ferry_terminal", "building": "yes", "ferry": "yes", "name": "B\u00fcy\u00fckada \u0130skelesi", "public_transport": "station", "wikimedia_commons": "File:Adalar_5540.jpg"}}, {"type": "way", "id": 700032115, "nodes": [6573849718, 6573849719, 6573849720, 6573849721, 6573849718], "tags": {"amenity": "ferry_terminal", "building": "yes", "ferry": "yes", "name": "MaviMarmara \u0130skesi", "public_transport": "station"}}]}