{"version": 0.6, "generator": "Overpass API 0.7.62.5 1bd436f1", "osm3s": {"timestamp_osm_base": "2025-03-28T18:34:30Z", "copyright": "The data included in this document is from www.openstreetmap.org. The data is made available under ODbL."}, "elements": [{"type": "node", "id": 4260630354, "lat": 40.981574, "lon": 29.1424102, "tags": {"brand": "A101", "brand:wikidata": "Q6034496", "brand:wikipedia": "tr:A101", "name": "A101", "opening_hours": "Mo-Su 09:00-21:30", "shop": "supermarket"}}, {"type": "node", "id": 4435520395, "lat": 40.973594, "lon": 29.1449456, "tags": {"addr:street": "\u00c7im sokak", "name": "7renk Tekeller", "name:tr": "7renk Tekeller", "shop": "supermarket"}}, {"type": "node", "id": 4435521691, "lat": 40.9737099, "lon": 29.1446289, "tags": {"name": "Derecik market", "name:tr": "Derecik market", "shop": "supermarket"}}, {"type": "node", "id": 4435534989, "lat": 40.9724197, "lon": 29.1447001, "tags": {"brand": "A101", "brand:wikidata": "Q6034496", "brand:wikipedia": "tr:A101", "name": "A101", "name:tr": "A101", "opening_hours": "Mo-Su 09:00-21:30", "shop": "supermarket"}}, {"type": "node", "id": 4579981063, "lat": 40.9780305, "lon": 29.1422399}, {"type": "node", "id": 4579981064, "lat": 40.9779117, "lon": 29.1422169}, {"type": "node", "id": 4579981065, "lat": 40.9778983, "lon": 29.1423385}, {"type": "node", "id": 4579981066, "lat": 40.978017, "lon": 29.1423616}, {"type": "node", "id": 5064986922, "lat": 40.9818976, "lon": 29.1417426, "tags": {"name": "Dada\u015flar Unlu Mamuller", "shop": "bakery"}}, {"type": "node", "id": 5064986924, "lat": 40.9817239, "lon": 29.14269, "tags": {"name": "K\u0131smet Kuruyemi\u015f", "name:tr": "K\u0131smet Kuruyemi\u015f", "shop": "convenience"}}, {"type": "node", "id": 5065006522, "lat": 40.9820893, "lon": 29.1402165, "tags": {"name": "Aziz Bakkal", "shop": "convenience"}}, {"type": "node", "id": 5260720490, "lat": 40.9810285, "lon": 29.1422563}, {"type": "node", "id": 5260720491, "lat": 40.9810055, "lon": 29.1424769}, {"type": "node", "id": 5260720492, "lat": 40.9811253, "lon": 29.1424988}, {"type": "node", "id": 5260720493, "lat": 40.9811483, "lon": 29.1422782}, {"type": "node", "id": 5260720516, "lat": 40.9807074, "lon": 29.1421522}, {"type": "node", "id": 5260720517, "lat": 40.9806814, "lon": 29.1423822}, {"type": "node", "id": 5260720518, "lat": 40.9808054, "lon": 29.1424068}, {"type": "node", "id": 5260720519, "lat": 40.9808314, "lon": 29.1421768}, {"type": "node", "id": 5273514406, "lat": 40.9775705, "lon": 29.1394065, "tags": {"brand": "B\u0130M", "brand:wikidata": "Q1022075", "brand:wikipedia": "en:Bim (company)", "name": "B\u0130M", "opening_hours": "Mo-Su 09:00-21:00", "shop": "supermarket"}}, {"type": "node", "id": 5273514411, "lat": 40.9777618, "lon": 29.1375785, "tags": {"brand": "A101", "brand:wikidata": "Q6034496", "brand:wikipedia": "tr:A101", "name": "A101", "opening_hours": "Mo-Su 09:00-21:30", "shop": "supermarket"}}, {"type": "node", "id": 5282746319, "lat": 40.980731, "lon": 29.1423644, "tags": {"brand": "B\u0130M", "brand:wikidata": "Q1022075", "brand:wikipedia": "en:Bim (company)", "name": "B\u0130M", "opening_hours": "Mo-Su 09:00-21:00", "shop": "supermarket"}}, {"type": "node", "id": 5282773484, "lat": 40.9762465, "lon": 29.1442699, "tags": {"name": "Mopa\u015f", "shop": "supermarket"}}, {"type": "node", "id": 5283466132, "lat": 40.9758151, "lon": 29.1371809, "tags": {"brand": "B\u0130M", "brand:wikidata": "Q1022075", "brand:wikipedia": "en:Bim (company)", "name": "B\u0130M", "opening_hours": "Mo-Su 09:00-21:00", "shop": "supermarket"}}, {"type": "node", "id": 5283466133, "lat": 40.9758427, "lon": 29.1397066, "tags": {"brand": "B\u0130M", "brand:wikidata": "Q1022075", "brand:wikipedia": "en:Bim (company)", "name": "B\u0130M", "note": "Ger\u00e7ekten Burada", "opening_hours": "Mo-Su 09:00-21:00", "shop": "supermarket"}}, {"type": "node", "id": 5283466145, "lat": 40.9754987, "lon": 29.1384318, "tags": {"name": "Berka", "shop": "convenience"}}, {"type": "node", "id": 5284818784, "lat": 40.9838792, "lon": 29.142629, "tags": {"brand": "\u015eok", "brand:wikidata": "Q19613992", "brand:wikipedia": "tr:\u015eok (market)", "name": "\u015eok", "shop": "supermarket"}}, {"type": "node", "id": 5293616053, "lat": 40.9840801, "lon": 29.1414196, "tags": {"brand": "B\u0130M", "brand:wikidata": "Q1022075", "brand:wikipedia": "en:Bim (company)", "name": "B\u0130M", "opening_hours": "Mo-Su 09:00-21:00", "shop": "supermarket"}}, {"type": "node", "id": 5354117108, "lat": 40.9767481, "lon": 29.1311823, "tags": {"name": "Berka", "shop": "supermarket"}}, {"type": "node", "id": 5354119349, "lat": 40.9763641, "lon": 29.1316596, "tags": {"brand": "A101", "brand:wikidata": "Q6034496", "brand:wikipedia": "tr:A101", "name": "A101", "opening_hours": "Mo-Su 09:00-21:30", "shop": "supermarket"}}, {"type": "node", "id": 5354129643, "lat": 40.9754415, "lon": 29.1346639, "tags": {"brand": "B\u0130M", "brand:wikidata": "Q1022075", "brand:wikipedia": "en:Bim (company)", "name": "B\u0130M", "opening_hours": "Mo-Su 09:00-21:00", "shop": "supermarket"}}, {"type": "node", "id": 5354129644, "lat": 40.9753516, "lon": 29.1346551, "tags": {"brand": "A101", "brand:wikidata": "Q6034496", "brand:wikipedia": "tr:A101", "name": "A101", "opening_hours": "Mo-Su 09:00-21:30", "shop": "supermarket"}}, {"type": "node", "id": 6166300217, "lat": 40.9710544, "lon": 29.1359005, "tags": {"brand": "A101", "brand:wikidata": "Q6034496", "brand:wikipedia": "tr:A101", "name": "A101", "opening_hours": "Mo-Su 09:00-21:30", "shop": "supermarket"}}, {"type": "node", "id": 6166300227, "lat": 40.971262, "lon": 29.1361342, "tags": {"name": "\u00c7\u0131t\u0131r Ekmek", "shop": "bakery"}}, {"type": "node", "id": 6166339238, "lat": 40.9712754, "lon": 29.1354402, "tags": {"name": "T\u00fcyl\u00fco\u011flu F\u0131r\u0131n", "shop": "bakery"}}, {"type": "node", "id": 6172848728, "lat": 40.9714812, "lon": 29.1337871, "tags": {"name": "\u00c7elik Market", "shop": "convenience"}}, {"type": "node", "id": 6172848736, "lat": 40.9712785, "lon": 29.1322678, "tags": {"name": "Alem Market", "shop": "convenience"}}, {"type": "node", "id": 6261943118, "lat": 40.9771802, "lon": 29.1384062, "tags": {"name": "Yeditepe Kuruyemi\u015f Market", "shop": "supermarket"}}, {"type": "node", "id": 6261943122, "lat": 40.978351, "lon": 29.1384371, "tags": {"name": "Berka", "shop": "supermarket"}}, {"type": "node", "id": 6261943124, "lat": 40.9767602, "lon": 29.1387756, "tags": {"name": "\u015eahin Market", "shop": "convenience"}}, {"type": "node", "id": 6649911678, "lat": 40.9711155, "lon": 29.1435729, "tags": {"name": "Tadem", "shop": "supermarket"}}, {"type": "node", "id": 6650595920, "lat": 40.9711782, "lon": 29.1397119, "tags": {"name": "Semar", "shop": "supermarket"}}, {"type": "node", "id": 6819809961, "lat": 40.9841008, "lon": 29.1360597, "tags": {"name": "Black Tekel Shop", "shop": "supermarket"}}, {"type": "node", "id": 6873105639, "lat": 40.9707367, "lon": 29.1397078, "tags": {"brand": "Simply Market", "brand:wikidata": "Q3484790", "brand:wikipedia": "en:Simply Market", "name": "Simply Market", "shop": "supermarket"}}, {"type": "node", "id": 6950312383, "lat": 40.9821175, "lon": 29.1403923, "tags": {"name": "Aydn Market", "shop": "convenience"}}, {"type": "node", "id": 6950332330, "lat": 40.9779684, "lon": 29.1422815, "tags": {"brand": "\u015eok", "brand:wikidata": "Q19613992", "brand:wikipedia": "tr:\u015eok (market)", "name": "\u015eok", "shop": "supermarket"}}, {"type": "node", "id": 6950332332, "lat": 40.9781129, "lon": 29.1447182, "tags": {"name": "G\u00fcnay G\u0131da", "shop": "convenience"}}, {"type": "node", "id": 9498241826, "lat": 40.9818416, "lon": 29.1317278, "tags": {"name": "Macrocenter", "shop": "supermarket"}}, {"type": "node", "id": 9498241829, "lat": 40.9819619, "lon": 29.1321758, "tags": {"level": "0", "name": "Karaf\u0131r\u0131n", "shop": "bakery"}}, {"type": "node", "id": 9990130017, "lat": 40.9719013, "lon": 29.1361636, "tags": {"name": "\u00d6Z Yunuslar S\u00fcpermarket", "name:en": "Yunuslar Market", "name:tr": "Yunuslar Market", "shop": "supermarket"}}, {"type": "node", "id": 9990130117, "lat": 40.9721105, "lon": 29.1360447, "tags": {"name": "Do\u011fan G\u0131da", "shop": "convenience"}}, {"type": "node", "id": 10038520455, "lat": 40.9717058, "lon": 29.1361284, "tags": {"brand": "B\u0130M", "brand:wikidata": "Q1022075", "name": "B\u0130M", "opening_hours": "Mo-Su 09:00-21:00", "shop": "supermarket"}}, {"type": "node", "id": 10120550718, "lat": 40.9716407, "lon": 29.1361553, "tags": {"name": "Bim", "shop": "supermarket"}}, {"type": "node", "id": 12103029580, "lat": 40.975866, "lon": 29.1443664, "tags": {"brand": "\u015eok", "brand:wikidata": "Q19613992", "name": "\u015eok", "shop": "supermarket"}}, {"type": "way", "id": 462620829, "nodes": [4579981063, 4579981064, 4579981065, 4579981066, 4579981063], "tags": {"building": "yes", "payment:cash": "yes", "payment:credit_cards": "yes", "payment:debit_cards": "yes", "shop": "supermarket"}}, {"type": "way", "id": 544212958, "nodes": [5260720490, 5260720491, 5260720492, 5260720493, 5260720490], "tags": {"building": "yes", "payment:cash": "yes", "payment:credit_cards": "yes", "payment:debit_cards": "yes", "shop": "supermarket"}}, {"type": "way", "id": 544212964, "nodes": [5260720516, 5260720517, 5260720518, 5260720519, 5260720516], "tags": {"building": "yes", "payment:cash": "yes", "payment:credit_cards": "yes", "payment:debit_cards": "yes", "shop": "supermarket"}}]}